ident,type,name,latitude,longitude,elevation_ft,iso_country,iso_region,municipality,gps_code,iata_code,local_code
00CA,small_airport,Goldstone /Gts/ Airport,35.3504982,-116.8880005,3038,US,US-CA,Barstow,00CA,,00CA
00CL,small_airport,Williams Ag Airport,39.427188,-121.763427,87,US,US-CA,Biggs,00CL,,00CL
00CN,heliport,Kitchen Creek Helibase Heliport,32.7273736,-116.4597417,3350,US,US-CA,Pine Valley,00CN,,00CN
01CA,heliport,Lugo Substation Heliport,34.36824059,-117.3700587,3733,US,US-CA,Hesperia,01CA,,01CA
01CL,small_airport,Swansboro Country Airport,38.79990005,-120.7340012,2594,US,US-CA,Placerville,01CL,,01CL
01CN,heliport,Los Angeles County Sheriff's Department Heliport,34.03779984,-118.1539993,300,US,US-CA,Los Angeles,01CN,,01CN
02CA,heliport,Swepi Beta Platform Ellen Heliport,33.58250046,-118.1289978,122,US,US-CA,Huntington Beach,02CA,,02CA
02CL,small_airport,Conover Air Lodge Airport,34.76110077,-119.0589981,5160,US,US-CA,Frazier Park,02CL,,02CL
03CA,heliport,Grossmont Hospital Heliport,32.779484,-117.006952,634,US,US-CA,La Mesa,03CA,,03CA
04CA,small_airport,Gray Butte Field,34.5639,-117.675003,3020,US,US-CA,Palmdale,KGXA,,04CA
04CL,small_airport,Hunt's Sky Ranch Airport,33.08169937,-116.4410019,2310,US,US-CA,Julian,04CL,,04CL
05CA,heliport,Lost Hills Sheriff's Station Heliport,34.13779831,-118.7139969,888,US,US-CA,Calabasas,05CA,,05CA
05CL,small_airport,Pope Valley Airport,38.6106987,-122.3909988,618,US,US-CA,Pope Valley,05CL,,05CL
06CA,heliport,Sce Solar I Heliport,34.87080002,-116.8339996,1942,US,US-CA,Yermo,06CA,,06CA
06CL,heliport,Abc7-Tv Heliport,35.15719986,-118.2890015,520,US,US-CA,Glendale,06CL,,06CL
07CA,heliport,West Side Hospital Heliport,35.13890076,-119.4509964,850,US,US-CA,Taft,07CA,,07CA
07CL,small_airport,Richvale Airport,39.49769974,-121.7710037,100,US,US-CA,Richvale,07CL,,07CL
08CA,heliport,Pg & E Co. Placerville Svc Center Heliport,38.69490051,-120.8270035,1810,US,US-CA,Diamond Springs,08CA,,08CA
08CL,small_airport,Kistler Ranch Airport,37.85960007,-120.5540009,1025,US,US-CA,Jamestown,08CL,,08CL
08CN,heliport,Tulare Motor Sports #1 Heliport,36.172031,-119.306181,270,US,US-CA,Tulare,08CN,,08CN
09CA,heliport,Mee Memorial Hospital Heliport,36.20554,-121.132503,320,US,US-CA,King City,09CA,,09CA
09CL,small_airport,Alta Sierra Airport,39.11380005,-121.0569992,2275,US,US-CA,Grass Valley,09CL,,09CL
09CN,heliport,Tulare Motor Sports #2 Heliport,36.182556,-119.313572,272,US,US-CA,Tulare,09CN,,09CN
0CA0,closed,Drew Medical Center Heliport,33.923302,-118.241997,180,US,US-CA,Los Angeles,,,
0CA1,closed,Northside Airpark,34.98830032,-120.4580002,190,US,US-CA,Santa Maria,,,
0CA2,heliport,Va Greater Los Angeles Health Care Center Heliport,34.04919815,-118.4560013,294,US,US-CA,West Los Angeles,0CA2,,0CA2
0CA3,small_airport,Crawford Airport,34.58750153,-120.0130005,570,US,US-CA,Santa Ynez,0CA3,,0CA3
0CA4,small_airport,Shepherd Ranch Airport,34.62220001,-120.0650024,660,US,US-CA,Santa Ynez,0CA4,,0CA4
0CA5,small_airport,Hoffman Private Airport,33.14310074,-116.7450027,3100,US,US-CA,Santa Ysabel,0CA5,,0CA5
0CA6,small_airport,Emory Ranch Airport,32.7494444,-116.0161111,480,US,US-CA,Ocotillo,0CA6,,0CA6
0CA7,heliport,Boeing Seal Beach (Rooftop) Heliport,33.75699997,-118.0879974,158,US,US-CA,Seal Beach,0CA7,,0CA7
0CA8,small_airport,Ward Ranch Airport,33.42779922,-116.8430023,2500,US,US-CA,Aguanga,0CA8,,0CA8
0CA9,small_airport,Blech Ranch Airport,35.59500122,-120.3389969,1140,US,US-CA,Shandon,0CA9,,0CA9
0CL0,small_airport,Yosemite Hidden Lake Ranch Airport,37.11800003,-119.913002,500,US,US-CA,Raymond,0CL0,,0CL0
0CL1,small_airport,Krey Field Airport,34.56940079,-117.5559998,3042,US,US-CA,Adelanto,0CL1,,0CL1
0CL2,heliport,Parking Lot Heliport,32.59389877,-117.0849991,,US,US-CA,Chula Vista,0CL2,,0CL2
0CL3,small_airport,John Nichol's Field Airport,32.6330986,-116.8929977,490,US,US-CA,Chula Vista,0CL3,,0CL3
0CL4,heliport,Glen Fed Heliport,34.15719986,-118.2549973,770,US,US-CA,Glendale,0CL4,,0CL4
0CL5,heliport,The Atrium Heliport,33.67060089,-117.8580017,46,US,US-CA,Irvine,0CL5,,0CL5
0CL6,small_airport,Bohunk's Airpark,34.69469833,-118.2829971,2410,US,US-CA,Lancaster,0CL6,,0CL6
0CL7,heliport,Good Samaritan Hospital Heliport,34.054901,-118.264967,473,US,US-CA,Los Angeles,0CL7,,0CL7
0CL8,small_airport,Tera Ultralightport,35.59130096,-117.6340027,2510,US,US-CA,Ridgecrest,0CL8,,0CL8
0CL9,heliport,Sce San Jacinto Valley Service Center Heliport,33.74110031,-117.151001,1482,US,US-CA,Romoland,0CL9,,0CL9
0CN1,small_airport,Fiorini Ranch Airport,37.452178,-120.764758,140,US,US-CA,Delhi,0CN1,,0CN1
0CN2,small_airport,Sutter Butte Dusters Airport,39.228622,-121.688265,67,US,US-CA,Live Oak,0CN2,,0CN2
0O0,seaplane_base,San Luis Reservoir Seaplane Base,37.05830002,-121.1259995,544,US,US-CA,Los Banos,0O0,,0O0
0O4,small_airport,Corning Municipal Airport,39.9435997,-122.1709976,292,US,US-CA,Corning,0O4,,0O4
0O9,small_airport,Ward Field,41.84569931,-123.9850006,356,US,US-CA,Gasquet,0O9,,0O9
0Q3,small_airport,Sonoma Valley Airport,38.2234993,-122.4499969,10,US,US-CA,Schellville/Sonoma,0Q3,,0Q3
0Q4,small_airport,Selma Airport,36.58160019,-119.6579971,305,US,US-CA,Selma,0Q4,,0Q4
0Q6,closed,Shingletown Airport,40.52209854,-121.8180008,3880,US,US-CA,Shingletown,0Q6,,0Q6
0Q9,small_airport,Sonoma Skypark Airport,38.25770187,-122.4339981,20,US,US-CA,Sonoma,0Q9,,0Q9
10CA,heliport,William E Poole Heliport,34.602252,-117.172451,3120,US,US-CA,Apple Valley,10CA,,10CA
10CL,closed,Joe Gottlieb Field,35.368,-119.195,347,US,US-CA,Bakersfield,,,
10CN,heliport,St Helena Hospital Heliport,38.5433333,-122.475,581,US,US-CA,St Helena,10CN,,10CN
11CA,small_airport,Turner Field,36.6733017,-119.7220001,300,US,US-CA,Fowler,11CA,,11CA
11CL,small_airport,Hansen Airport,34.63000107,-117.6529999,2885,US,US-CA,Adelanto,11CL,,11CL
11CN,heliport,Shasta Regional Medical Center Heliport,40.585116,-122.387976,622,US,US-CA,Redding,11CN,,11CN
12CA,small_airport,Faber Vineyards Airport,38.10960007,-121.1689987,70,US,US-CA,Lodi,12CA,,12CA
12CL,small_airport,Newton Field,36.1568985,-119.8499985,194,US,US-CA,Stratford,12CL,,12CL
12CN,small_airport,Richter Airport,39.268306,-122.116689,57,US,US-CA,Maxwell,12CN,,12CN
13CA,heliport,M H 15 Heaps Peak US Forest Service Heliport,34.23529816,-117.1549988,6266,US,US-CA,Lake Arrowhead,13CA,,13CA
13CL,small_airport,Maine Prairie Airport,38.38130188,-121.8239975,40,US,US-CA,Dixon,13CL,,13CL
14CA,heliport,Hoag Memorial Hospital Heliport,33.625182,-117.930799,94,US,US-CA,Newport Beach,14CA,,14CA
14CL,heliport,Foothill Presbyterian Hospital Heliport,34.133487,-117.870677,730,US,US-CA,Glendora,14CL,,14CL
14L,heliport,Devonshire Area Heliport,34.25690079,-118.5309982,1012,US,US-CA,Los Angeles,14L,,14L
15CA,heliport,Stanford University Hospital Center Heliport,37.4355011,-122.1750031,84,US,US-CA,Palo Alto,15CA,,15CA
15CL,small_airport,Hunt Farms Airport,37.34270096,-120.4039993,223,US,US-CA,Merced,15CL,,15CL
16CA,heliport,Police Pistol Range Heliport,37.7193985,-122.4990005,24,US,US-CA,San Francisco,16CA,,16CA
16CL,heliport,Mother Lode Service Center Heliport,38.08330154,-120.5410004,1560,US,US-CA,Angels Camp,16CL,,16CL
17CA,heliport,Brookside Hospital Heliport,37.95410156,-122.336998,85,US,US-CA,San Pablo,17CA,,17CA
17CL,small_airport,Las Trancas Airport,37.08800125,-122.2740021,125,US,US-CA,Davenport,17CL,,17CL
18CA,heliport,Twin Cities Community Hospital Heliport,35.55500031,-120.7190018,851,US,US-CA,Templeton,18CA,,18CA
18CL,small_airport,Bowles Airport,39.2859993,-121.6940002,75,US,US-CA,Live Oak,18CL,,18CL
19CA,heliport,Henry Mayo Newhall Memorial Hospital Heliport,34.39904,-118.551756,1325,US,US-CA,Valencia,19CA,,19CA
19CL,small_airport,Palisades Ranch Airport,34.71220016,-117.3509979,2510,US,US-CA,Helendale,19CL,,19CL
1C9,small_airport,Frazier Lake Airpark,36.95330048,-121.4649963,151,US,US-CA,Hollister,1C9,,1C9
1CA0,heliport,Boeing Santa Susana Heliport,34.2378006,-118.6959991,1800,US,US-CA,Simi Valley,1CA0,,1CA0
1CA1,small_airport,Belridge Strip,35.4679985,-119.7220001,575,US,US-CA,South Belridge,1CA1,,1CA1
1CA2,heliport,Sunrise One Heliport,38.60329819,-121.2630005,100,US,US-CA,Rancho Cordova,1CA2,,1CA2
1CA3,heliport,G S A Laguna Niguel G/L Helistop,33.56169891,-117.7160034,188,US,US-CA,South Laguna Beach,1CA3,,1CA3
1CA4,small_airport,Aha-Quin Airport,33.86949921,-114.5270004,300,US,US-CA,Blythe,1CA4,,1CA4
1CA5,heliport,California Title Building Heliport,34.12390137,-118.151001,808,US,US-CA,South Pasadena,1CA5,,1CA5
1CA6,small_airport,On the Rocks Airport,32.76509857,-116.7229996,2650,US,US-CA,Alpine,1CA6,,1CA6
1CA7,heliport,L. A. Times Costa Mesa Heliport,33.69390106,-117.9169998,35,US,US-CA,Costa Mesa,1CA7,,1CA7
1CA8,heliport,R I Science Center Helistop,34.19720078,-118.9089966,775,US,US-CA,Thousand Oaks,1CA8,,1CA8
1CA9,heliport,Los Angeles County Fire Department Heliport,34.08330154,-118.8679962,1360,US,US-CA,Thousand Oaks,1CA9,,1CA9
1CL0,heliport,William Archibald Heliport,34.10449982,-117.8000031,984,US,US-CA,San Dimas,1CL0,,1CL0
1CL1,small_airport,Little Buttes Antique Airfield,34.79410172,-118.2779999,2433,US,US-CA,Lancaster,1CL1,,1CL1
1CL2,small_airport,Pontious Airport,34.94250107,-118.1699982,2610,US,US-CA,Mojave,1CL2,,1CL2
1CL3,heliport,Alameda County Parking Garage Heliport,37.80080032,-122.2649994,119,US,US-CA,Oakland,1CL3,,1CL3
1CL4,heliport,Uci Medical Center Heliport,33.78879929,-117.8899994,140,US,US-CA,Orange,1CL4,,1CL4
1CL5,heliport,Pomerado Hospital Heliport,32.99819946,-117.0569992,650,US,US-CA,Poway,1CL5,,1CL5
1CL6,heliport,Lake Park Helistop,38.54769897,-121.3799973,45,US,US-CA,Sacramento,1CL6,,1CL6
1CL8,heliport,Marian Medical Center Heliport,34.95080185,-120.413002,256,US,US-CA,Santa Maria,1CL8,,1CL8
1CL9,heliport,Sfi-Vernon Heliport,34.00099945,-118.2129974,231,US,US-CA,Vernon,1CL9,,1CL9
1O6,small_airport,Dunsmuir Muni-Mott Airport,41.263199,-122.272003,3258,US,US-CA,Dunsmuir,KMHS,MHS,1O6
1Q1,small_airport,Eckert Field,36.16249847,-119.0500031,426,US,US-CA,Strathmore,1Q1,,1Q1
1Q5,small_airport,Gravelly Valley Airport,39.44990158,-122.9550018,1900,US,US-CA,Upper Lake,1Q5,,1Q5
20CA,heliport,Clayton Heliport,33.60390091,-114.6449966,261,US,US-CA,Blythe,20CA,,20CA
20CL,small_airport,Mysterious Valley Airport,38.7492981,-122.3669968,1410,US,US-CA,Pope Valley,20CL,,20CL
21CA,heliport,Area Energy Llc Heliport,33.67919922,-118.0279999,40,US,US-CA,Huntington Beach,21CA,,21CA
21CL,heliport,Sheriff's Heliport,34.70000076,-118.0589981,2367,US,US-CA,Lancaster,21CL,,21CL
22CA,seaplane_base,Commodore Center Seaplane Base,37.87990189,-122.5139999,,US,US-CA,Sausalito,22CA,,22CA
22CL,small_airport,Double Tree Farm Airport,39.29990005,-121.3590012,550,US,US-CA,Marysville,22CL,,22CL
22CN,heliport,ABC-TV Heliport,34.10329819,-118.2829971,422,US,US-CA,Los Angeles,22CN,,22CN
23CA,small_airport,Lefko Airport,41.62490082,-122.7649994,2860,US,US-CA,Fort Jones,23CA,,23CA
23CL,heliport,L A Co Mens Detention Cntr-Main Jail Heliport,34.06029892,-118.2300034,352,US,US-CA,Los Angeles,23CL,,23CL
23CN,small_airport,Douthitt Strip,32.78889847,-115.5299988,45,US,US-CA,El Centro,23CN,,23CN
24CA,heliport,Mesa Heliport,34.20470047,-118.1709976,1520,US,US-CA,Pasadena,24CA,,24CA
24CL,small_airport,Salyer Farms Airport,36.08879852,-119.5429993,205,US,US-CA,Corcoran,24CL,,24CL
24CN,heliport,R I An Anaheim Helistop G/L B/201 Heliport,33.85359955,-117.8509979,222,US,US-CA,Anaheim,24CN,,24CN
25CA,small_airport,Loma Madera Ranch Airport,33.17919922,-116.7929993,3375,US,US-CA,Santa Ysabel,25CA,,25CA
25CL,small_airport,Van Dyke Strip,38.86660004,-121.4840012,48,US,US-CA,Pleasant Grove,25CL,,25CL
25CN,heliport,Platform Holly Heliport,34.38970184,-119.9059982,87,US,US-CA,Ellwood,25CN,,25CN
26CA,small_airport,Boeckmann Ranch Airport,38.42689896,-121.1719971,100,US,US-CA,Wilton,26CA,,26CA
26CL,heliport,Litton Industries Heliport,34.16859818,-118.5950012,875,US,US-CA,Los Angeles,26CL,,26CL
26CN,heliport,Vincent Substation Heliport,34.48676762,-118.1159127,3244,US,US-CA,Acton,26CN,,26CN
27CA,small_airport,Holiday Ranch Airport,34.56110001,-117.0810013,3260,US,US-CA,Apple Valley,27CA,,27CA
27CL,small_airport,Sopwith Farm Airport,38.74710083,-121.572998,20,US,US-CA,Pleasant Grove,27CL,,27CL
27CN,heliport,Sce Pardee Substation Helistop,34.43859863,-118.5790024,1073,US,US-CA,Newhall,27CN,,27CN
28CA,small_airport,Dos Palos Airport,36.96239853,-120.6299973,118,US,US-CA,Dos Palos,28CA,,28CA
28CL,heliport,Borax Heliport,35.0304985,-117.7080002,2400,US,US-CA,Boron,28CL,,28CL
28CN,heliport,San Joaquin Community Hospital Heliport,35.38359833,-119.0199966,465,US,US-CA,Bakersfield,28CN,,28CN
29CA,heliport,Landells Heliport,33.25590134,-116.4540024,940,US,US-CA,Desert Hot Springs,29CA,,29CA
29CL,heliport,Childrens Hospital Los Angeles Heliport,34.097308,-118.288617,500,US,US-CA,Los Angeles,29CL,,29CL
29CN,small_airport,Dubey Airport,38.84989929,-120.8339996,2400,US,US-CA,Georgetown,29CN,,29CN
2CA0,heliport,Ash Mountain Heliport,36.49580002,-118.8339996,1820,US,US-CA,Three Rivers,2CA0,,2CA0
2CA1,heliport,Cosmodyne Heliport,33.84360123,-118.3399963,128,US,US-CA,Torrance,2CA1,,2CA1
2CA2,small_airport,Cones Field,34.16279984,-116.0479965,1800,US,US-CA,Twentynine Palms,2CA2,,2CA2
2CA3,small_airport,Crosswinds Airport,34.15999985,-115.9970016,1835,US,US-CA,Twentynine Palms,2CA3,,2CA3
2CA4,small_airport,Blackinton Airport,33.25889969,-117.0920029,1156,US,US-CA,Valley Center,2CA4,,2CA4
2CA5,heliport,Platform Emmy Heliport,33.66230011,-118.0449982,87,US,US-CA,Huntington Beach,2CA5,,2CA5
2CA6,heliport,K & T 660 Figueroa Partners Heliport,34.04919815,-118.2590027,629,US,US-CA,Los Angeles,2CA6,,2CA6
2CA7,heliport,Prudential Helistop,34.17559814,-118.5950012,847,US,US-CA,Woodland Hills,2CA7,,2CA7
2CA8,small_airport,B & E Ranch Airport,34.42060089,-116.6110001,2793,US,US-CA,Yucca Valley,2CA8,,2CA8
2CL0,heliport,Commerce Business Park Heliport,33.98669815,-118.1610031,135,US,US-CA,City of Commerce,2CL0,,2CL0
2CL1,heliport,Canyon Creek Heliport,37.10829926,-121.7969971,695,US,US-CA,Morgan Hill,2CL1,,2CL1
2CL2,small_airport,Mc Cabe Ranch Airport,39.01100159,-122.0979996,65,US,US-CA,Arbuckle,2CL2,,2CL2
2CL3,small_airport,Longbell Ranch Airport,41.64210129,-121.8899994,4607,US,US-CA,Tennant,2CL3,,2CL3
2CL4,heliport,American Display Heliport,40.52209854,-122.3040009,503,US,US-CA,Redding,2CL4,,2CL4
2CL5,heliport,Kovr Heliport,38.59159851,-121.5449982,20,US,US-CA,West Sacramento,2CL5,,2CL5
2CL6,heliport,St John's Regional Medical Center Heliport,34.21670151,-119.1579971,76,US,US-CA,Oxnard,2CL6,,2CL6
2CL7,heliport,Glendale Plaza Emergency Heliport,34.1556015,-118.2590027,904,US,US-CA,Glendale,2CL7,,2CL7
2CL8,heliport,Inland Valley Medical Center Heliport,33.592499,-117.237,1327,US,US-CA,Wildomar,2CL8,,2CL8
2CL9,small_airport,Mustang Airport,38.33440018,-121.3040009,45,US,US-CA,Galt,2CL9,,2CL9
2CN2,heliport,Dept. Of Water And Power Granada Hills Heliport,34.289028,-118.471111,1124,US,US-CA,Los Angeles,2CN2,,2CN2
2CN3,small_airport,Tenaja Valley Airport,33.511111,-117.328611,2350,US,US-CA,Murrieta,2CN3,,2CN3
2CN4,small_airport,Paramount Farms Airport,35.66638889,-119.8963889,617,US,US-CA,Lost Hills,2CN4,,2CN4
2CN5,heliport,Regional Medical Center Of San Jose H1 Heliport,37.3625,-121.850278,107,US,US-CA,San Jose,2CN5,,2CN5
2CN6,heliport,Department Of Water & Power Los Angeles Heliport,34.058056,-118.248611,654,US,US-CA,Los Angeles,2CN6,,2CN6
2CN7,heliport,Qualcomm Building N Heliport,32.895694,-117.196083,486,US,US-CA,San Diego,2CN7,,2CN7
2CN8,small_airport,Lake Arrowhead Airport,34.304167,-117.151389,4610,US,US-CA,Lake Arrowhead,2CN8,,2CN8
30CA,heliport,Indian Valley Hospital Heliport,40.141289,-120.937231,3482,US,US-CA,Greenville,30CA,,30CA
30CL,heliport,Long Beach Memorial Medical Center Heliport,33.808741,-118.186728,84,US,US-CA,Long Beach,30CL,,30CL
31CA,heliport,Baldwin Base Heliport,33.69390106,-117.8320007,50,US,US-CA,Irvine,31CA,,31CA
31CL,heliport,Presbyterian Intercommunity Hospital Heliport,33.97109985,-118.0490036,196,US,US-CA,Whittier,31CL,,31CL
32CA,small_airport,Stone Airstrip,36.33330154,-119.8249969,220,US,US-CA,Lemoore,32CA,,32CA
32CL,small_airport,Bob's Flying Service Inc Airport,38.83319855,-121.7180023,40,US,US-CA,Knights Landing,32CL,,32CL
32CN,heliport,Pacific Bell-2300 Imperial Hwy Heliport,33.97999954,-118.3820038,209,US,US-CA,El Segundo,32CN,,32CN
33CA,small_airport,Lloyd's Landing Airport,34.9054985,-118.302002,2690,US,US-CA,Rosamond,33CA,,33CA
33CL,small_airport,Oak Country Ranch Airport,35.56829834,-120.7969971,1200,US,US-CA,Paso Robles,33CL,,33CL
33CN,heliport,Platform Hillhouse Heliport,34.33110046,-119.6039963,98,US,US-CA,Carpinteria,33CN,,33CN
34CA,closed,Fiddyment Field,38.792099,-121.3730011,98,US,US-CA,Roseville,34CA,,34CA
34CL,heliport,Burney Service Center Heliport,40.89459991,-121.6500015,3116,US,US-CA,Burney,34CL,,34CL
34CN,small_airport,Bonanza Hills Airport,37.52349854,-120.3980026,295,US,US-CA,Snelling,34CN,,34CN
35CA,heliport,Los Angeles County/USC Medical Center Heliport,34.0575,-118.208056,454,US,US-CA,Los Angeles,35CA,,35CA
35CL,closed,59 Ranch Airport,37.231899,-120.478996,154,US,US-CA,Merced,,,
35CN,small_airport,Farnsworth Ranch Airstrip,39.09989929,-121.9339981,50,US,US-CA,Grimes,35CN,,35CN
36CA,small_airport,Stone Land County Airport,36.13190079,-119.9860001,265,US,US-CA,Stratford,36CA,,36CA
36CL,heliport,Tri-City Hospital Heliport,33.18529892,-117.2910004,260,US,US-CA,Oceanside,36CL,,36CL
36CN,small_airport,Blackwell Land Company Inc Airport,35.63639832,-120.0090027,760,US,US-CA,Lost Hills,36CN,,36CN
37CA,small_airport,Billy Joe Airport,33.50699997,-117.0709991,1350,US,US-CA,Temecula,37CA,,37CA
37CL,small_airport,Lyall-Roberts Airport,33.32450104,-116.9899979,925,US,US-CA,Escondido,37CL,,37CL
37CN,small_airport,Arnold Ranch Airport,36.91439819,-119.7860031,382,US,US-CA,Fresno,37CN,,37CN
38CA,small_airport,Cashen Airport,35.6916008,-119.4889984,225,US,US-CA,Wasco,38CA,,38CA
38CL,small_airport,Riego Flight Strip,38.7541008,-121.5630035,21,US,US-CA,Verona,38CL,,38CL
38CN,small_airport,Sanborn Airport,39.10929871,-121.8840027,36,US,US-CA,Meridian,38CN,,38CN
39CA,heliport,Sce Palm Springs District Heliport,33.78639984,-117.4660034,300,US,US-CA,Cathedral City,39CA,,39CA
39CL,heliport,Castle Heliport,33.78789902,-117.2300034,1459,US,US-CA,Perris,39CL,,39CL
3CA0,heliport,Burroughs Heliport,35.70410156,-119.3769989,262,US,US-CA,Wasco,3CA0,,3CA0
3CA1,heliport,Newport Beach Police Heliport,33.62639999,-117.8769989,156,US,US-CA,Newport Beach,3CA1,,3CA1
3CA2,heliport,Jamboree Center Helistop,33.67779922,-117.836998,77,US,US-CA,Irvine,3CA2,,3CA2
3CA3,closed,Dixon Airport,34.922199,-119.526001,2440,US,US-CA,Cuyama,,,
3CA5,closed,Haws Airport,36.9416,-120.242995,192,US,US-CA,Madera,,,
3CA6,heliport,J.H. Snyder Co. Iii Heliport,34.0625,-118.3519974,559,US,US-CA,Los Angeles,3CA6,,3CA6
3CA7,small_airport,Metz Airport,36.32830048,-121.1869965,240,US,US-CA,Greenfield,3CA7,,3CA7
3CA8,heliport,Holy Cross Medical Center Heliport,34.27970123,-118.4609985,1031,US,US-CA,San Fernando,3CA8,,3CA8
3CA9,small_airport,Clark Ranch Airport,36.36330032,-121.3099976,276,US,US-CA,Soledad,3CA9,,3CA9
3CL0,heliport,UC Davis Medical Center Tower II Heliport,38.554831,-121.455491,236,US,US-CA,Sacramento,3CL0,,3CL0
3CL1,heliport,Metropolitan Water District Heliport,34.0544014,-118.2369995,465,US,US-CA,Los Angeles,3CL1,,3CL1
3CL2,small_airport,Meadow Airstrip,40.15639877,-122.302002,345,US,US-CA,Red Bluff,3CL2,,3CL2
3CL3,heliport,World Trade Center Heliport,33.77780151,-118.1999969,398,US,US-CA,Long Beach,3CL3,,3CL3
3CL4,heliport,Super Bowl Heliport,34.17279816,-118.1709976,960,US,US-CA,Pasadena,3CL4,,3CL4
3CL5,heliport,Chase Plaza Heliport,34.03720093,-118.2580032,412,US,US-CA,Los Angeles,3CL5,,3CL5
3CL6,heliport,Long Point Heliport,33.73699951,-118.3939972,85,US,US-CA,Rancho Palos Verdes,3CL6,,3CL6
3CL7,heliport,Raleigh Enterprises Heliport,34.03609848,-118.4420013,200,US,US-CA,Los Angeles,3CL7,,3CL7
3CL8,heliport,Toyota Helistop,33.85639954,-118.3130035,60,US,US-CA,Torrance,3CL8,,3CL8
3CL9,heliport,Sce Northern Division Heliport,34.2881012,-119.1689987,273,US,US-CA,San Buenaventura,3CL9,,3CL9
3CN2,heliport,Santa Barbara Cottage Hospital Heliport,34.43,-119.724166,201,US,US-CA,Santa Barbara,3CN2,,3CN2
3CN4,heliport,Kaiser Permanente Anaheim Medical Center Heliport,33.852,-117.8453,341,US,US-CA,Anaheim,3CN4,,3CN4
3CN5,heliport,Los Angeles County Sheriffs Dept South LA Heliport,33.92864,-118.299004,209,US,US-CA,Los Angeles,3CN5,,3CN5
3O8,small_airport,Harris Ranch Airport,36.2480011,-120.237999,470,US,US-CA,Coalinga,3O8,,3O8
40CA,heliport,City of Industry Civic Financial Center Heliport,34.0245018,-117.9589996,322,US,US-CA,City of Industry,40CA,,40CA
40CN,heliport,Loma Linda University Medical Center-Murrieta Heliport,33.614716,-117.169905,1576,US,US-CA,Murrieta,40CN,,40CN
41CA,small_airport,Silver Creek Ranch Airport,40.31760025,-123.2539978,2511,US,US-CA,Forest Glen,41CA,,41CA
42CA,heliport,John F Kennedy Memorial Hospital Heliport,33.705854,-116.236761,12,US,US-CA,Indio,42CA,,42CA
42CL,heliport,Costa Mesa Police Department Heliport,33.6631012,-117.9039993,60,US,US-CA,Costa Mesa,42CL,,42CL
42CN,small_airport,Peg Field,36.70909882,-119.4049988,460,US,US-CA,Reedley,42CN,,42CN
42L,heliport,Naa Long Beach Port Helistop,33.76470184,-118.1999969,15,US,US-CA,Long Beach,42L,,42L
43CA,small_airport,Dick Taylor Airstrip,34.88190079,-115.7330017,2611,US,US-CA,Kelso,43CA,,43CA
43CL,small_airport,Dick Dale Skyranch Airport,34.20610046,-115.9980011,1793,US,US-CA,Twentynine Palms,43CL,,43CL
43CN,closed,Mazza Airport,38.1852,-122.601997,20,US,US-CA,Petaluma,,,
43L,heliport,Van Nuys County Court Heliport,34.18330002,-118.447998,850,US,US-CA,Los Angeles,43L,,43L
44CA,closed,W R Byron Airport,33.679199,-114.643997,400,US,US-CA,Blythe,,,
44CL,small_airport,Cortopassi Airport,38.01380157,-121.1259995,80,US,US-CA,Linden,44CL,,44CL
44CN,heliport,UCLA Wilshire Glendon Heliport,34.059169,-118.44425,509,US,US-CA,Los Angeles,44CN,,44CN
44L,heliport,Wilshire Area Heliport,34.04700089,-118.3430023,150,US,US-CA,Los Angeles,44L,,44L
45CA,heliport,Chapin Medical Pad Heliport,33.89360046,-117.5979996,578,US,US-CA,Corona,45CA,,45CA
45CL,small_airport,Hell'er High Water Airport,40.14319992,-123.3980026,2493,US,US-CA,Zenia,45CL,,45CL
45CN,small_airport,Hermitage Airport,37.88019943,-120.1940002,2700,US,US-CA,Groveland,45CN,,45CN
45L,heliport,Parker Center Heliport,34.05220032,-118.2409973,450,US,US-CA,Los Angeles,45L,,45L
46CA,small_airport,Rancho Vallecito Airport,32.97090149,-116.4089966,1680,US,US-CA,Julian,46CA,,46CA
46CL,heliport,AT&T Center Heliport,34.039611,-118.261704,679,US,US-CA,Los Angeles,46CL,,46CL
46CN,small_airport,Crystal Airport,34.48469925,-117.8259964,3420,US,US-CA,Llano,46CN,,46CN
47CA,heliport,Mountains Community Hospital Heliport,34.26530075,-117.1679993,5318,US,US-CA,Lake Arrowhead,47CA,,47CA
47CL,heliport,Spears Heliport,34.3125,-118.474444,1314,US,US-CA,San Fernando,47CL,,47CL
47CN,heliport,Pg&E Auburn Service Center Heliport,38.88800049,-121.0749969,1280,US,US-CA,Auburn,47CN,,47CN
48CA,heliport,Huntington Beach Service Center Heliport,33.74530029,-118,29,US,US-CA,Westminster,48CA,,48CA
48CL,heliport,Grass Valley Service Center Heliport,39.19990158,-121.0589981,2430,US,US-CA,Grass Valley,48CL,,48CL
48CN,small_airport,Sallaberry Ranch Strip,37.05720139,-120.1439972,263,US,US-CA,Madera,48CN,,48CN
49CA,heliport,DCOR Platform Habitat Heliport,34.286619,-119.589343,90,US,US-CA,Carpinteria,49CA,,49CA
49CL,small_airport,El Peco Ranch Airport,36.9054985,-120.177002,213,US,US-CA,Madera,49CL,,49CL
49CN,small_airport,Rancho Tehama Airport,40.01599884,-122.3899994,550,US,US-CA,Red Bluff,49CN,,49CN
4CA0,heliport,Lapd Hooper Heliport,34.04330063,-118.2470016,302,US,US-CA,Los Angeles,4CA0,,4CA0
4CA1,heliport,City National Bank Heliport,34.04779816,-118.2549973,453,US,US-CA,Los Angeles,4CA1,,4CA1
4CA2,small_airport,Funny Farm Airport,37.94689941,-121.6470032,29,US,US-CA,Brentwood,4CA2,,4CA2
4CA3,heliport,Camp Parks Heliport,37.70830154,-121.8929977,361,US,US-CA,Pleasanton,4CA3,,4CA3
4CA4,heliport,St Francis Medical Center Helistop,33.93030167,-118.2030029,154,US,US-CA,Lynwood,4CA4,,4CA4
4CA5,heliport,Choc Heliport,33.78079,-117.865062,275,US,US-CA,Orange,4CA5,,4CA5
4CA6,heliport,Chevron Refinery Heliport,33.91419983,-118.427002,29,US,US-CA,El Segundo,4CA6,,4CA6
4CA7,small_airport,Johnsen Airport,39.67070007,-121.8860016,190,US,US-CA,Chico,4CA7,,4CA7
4CA8,small_airport,Yandell Ranch Airport,37.64049911,-121.1620026,40,US,US-CA,Modesto,4CA8,,4CA8
4CA9,heliport,Randy Champe-Gary Howe Memorial Heliport,33.970101,-118.277622,184,US,US-CA,Los Angeles,4CA9,,4CA9
4CL1,heliport,Lyon Heliport,33.61339951,-117.5910034,898,US,US-CA,Rancho Santa Margarita,4CL1,,4CL1
4CL2,heliport,Wolfranch Heliport,33.50279999,-117.3050003,2000,US,US-CA,Temecula,4CL2,,4CL2
4CL3,small_airport,Antelope Valley Ranch Airport,39.14630127,-122.3539963,530,US,US-CA,Williams,4CL3,,4CL3
4CL4,small_airport,Rabbit Ranch Airport,34.45439911,-117.026001,2942,US,US-CA,Lucerne,4CL4,,4CL4
4CL5,heliport,Mercy San Juan Hospital Heliport,38.66910172,-121.3150024,169,US,US-CA,Carmichael,4CL5,,4CL5
4CL6,heliport,Pat Coyle Memorial Heliport,33.14189911,-117.1460037,600,US,US-CA,San Marcos,4CL6,,4CL6
4CL7,heliport,Inyo County Sheriff Search & Rescue Heliport,37.36579895,-118.3679962,4120,US,US-CA,Bishop,4CL7,,4CL7
4CL8,heliport,Hanford Community Medical Center Helistop,36.329778,-119.659564,251,US,US-CA,Hanford,4CL8,,4CL8
4CL9,heliport,Arrowhead Regional Medical Center Heliport,34.07580185,-117.348999,1076,US,US-CA,Colton,4CL9,,4CL9
50CA,heliport,St Mary Medical Center Heliport,33.780949,-118.186094,174,US,US-CA,Long Beach,50CA,,50CA
50CL,heliport,L A Co Sheriff Lakewood Heliport,33.85079956,-118.1330032,58,US,US-CA,Lakewood,50CL,,50CL
51CA,small_airport,Kelly Airport,34.42359924,-116.6169968,2806,US,US-CA,Lucerne Valley,51CA,,51CA
51CL,small_airport,Vetters Sky Ranch Airport,38.23049927,-121.2220001,80,US,US-CA,Galt,51CL,,51CL
52CA,closed,Lake Mathews Airport,33.8531,-117.424004,1385,US,US-CA,Riverside,,,
52CL,small_airport,Adelanto Airport,34.53749847,-117.4609985,3075,US,US-CA,Adelanto,52CL,,52CL
52CN,small_airport,Ponderosa Sky Ranch Airport,40.34429932,-121.7750015,3454,US,US-CA,Paynes Creek,52CN,,52CN
53CA,heliport,Hummingbird Nest Heliport,34.2818985,-118.6549988,1411,US,US-CA,Simi Valley,53CA,,53CA
53CL,small_airport,Lofty Redwoods Airport,38.85960007,-123.5910034,1317,US,US-CA,Anchor Bay,53CL,,53CL
53CN,small_airport,Thayer Aviation Airport,39.07490158,-121.9179993,54,US,US-CA,Grimes,53CN,,53CN
54CA,heliport,Paradise Valley Hospital Heliport,32.68389893,-117.0820007,116,US,US-CA,National City,54CA,,54CA
54CL,small_airport,Lake Riverside Estates Airport,33.52090073,-116.7969971,3410,US,US-CA,Anza,54CL,,54CL
54CN,small_airport,Akin Airport,38.7541008,-120.8990021,1595,US,US-CA,Placerville,54CN,,54CN
54L,heliport,Terminal Annex Heliport,34.05810165,-118.2360001,355,US,US-CA,Los Angeles,54L,,54L
55CA,heliport,Naval Hospital Heliport,37.76689911,-122.151001,374,US,US-CA,Oakland,55CA,,55CA
55CL,small_airport,Costerisan Farms Airport,35.26330185,-119.0459976,346,US,US-CA,Bakersfield,55CL,,55CL
55CN,heliport,Sunset-Glendale Heliport,34.07780075,-118.2600021,556,US,US-CA,Los Angeles,55CN,,55CN
56CA,heliport,Los Angeles Times-La Heliport,34.05059814,-118.2460022,345,US,US-CA,Los Angeles,56CA,,56CA
56CL,small_airport,Morris Ag Air SW Airport,33.591999,-114.606003,263,US,US-CA,Blythe,56CL,,56CL
57CA,heliport,Merle Norman Cosmetics Bldg 3 Heliport,33.95330048,-118.3809967,126,US,US-CA,Los Angeles,57CA,,57CA
57CL,small_airport,Boron Airstrip,35.00360107,-117.6070023,2499,US,US-CA,Boron,57CL,,57CL
57CN,small_airport,Van Vleck Airport,38.46910095,-121.0749969,175,US,US-CA,Rancho Murieta,57CN,,57CN
58CA,heliport,Jay Stephen Hooper Memorial Heliport,34.05450058,-118.2289963,353,US,US-CA,Los Angeles,58CA,,58CA
58CL,small_airport,Borrego Air Ranch Airport,33.19169998,-116.276001,575,US,US-CA,Borrego Springs,58CL,,58CL
58CN,heliport,Jackson Lake Heliport,39.46239853,-120.5660019,6650,US,US-CA,Jackson Lake,58CN,,58CN
59CA,small_airport,Little Hands STOLport,37.80329895,-122.0289993,1008,US,US-CA,San Ramon,59CA,,59CA
59CL,small_airport,O'Connell Brothers Airport,32.96250153,-115.5419998,-99,US,US-CA,Brawley,59CL,,59CL
59CN,small_airport,James Brothers Airport,38.8348999,-121.5299988,25,US,US-CA,Pleasant Grove,59CN,,59CN
59L,closed,City Hall Heliport,34.054199,-118.242995,360,US,US-CA,Los Angeles,,,
5CA0,heliport,Dreamworks Helistop Glendale Heliport,34.15829849,-118.2860031,513,US,US-CA,Glendale,5CA0,,5CA0
5CA1,heliport,Texaco - San Ardo Heliport,35.95660019,-120.8700027,449,US,US-CA,San Ardo,5CA1,,5CA1
5CA2,heliport,Ord Mountain Heliport,34.67537624,-116.8153498,6120,US,US-CA,Barstow,5CA2,,5CA2
5CA3,heliport,San Rafel Private Heliport,37.94660187,-122.4869995,5,US,US-CA,San Rafel,5CA3,,5CA3
5CA4,small_airport,Ludlow Airport,34.75329971,-116.1539993,1700,US,US-CA,Barstow,5CA4,,5CA4
5CA5,heliport,San Joaquin Sprayers Inc Heliport,35.79299927,-119.1839981,400,US,US-CA,Delano,5CA5,,5CA5
5CA6,heliport,San Joaquin Helicopters Heliport,35.79109955,-119.2300034,335,US,US-CA,Delano,5CA6,,5CA6
5CA7,small_airport,Agro-West Airport,36.33610153,-120.2470016,335,US,US-CA,Five Points,5CA7,,5CA7
5CA8,small_airport,Howard /Private/ Airport,38.25630188,-120.9319992,480,US,US-CA,Ione,5CA8,,5CA8
5CA9,seaplane_base,Konocti  - Clear Lake Seaplane Base,38.977699,-122.718002,1326,US,US-CA,Kelseyville,5CA9,,5CA9
5CL0,small_airport,Grupe Ranch Airport,37.34049988,-119.8619995,1625,US,US-CA,Mariposa,5CL0,,5CL0
5CL1,small_airport,Hart Ranch Airport,35.40470123,-120.5250015,1380,US,US-CA,Santa Margarita,5CL1,,5CL1
5CL2,heliport,St Louise Regional Hospital Heliport,37.03580093,-121.5719986,214,US,US-CA,Gilroy,5CL2,,5CL2
5CL3,small_airport,Mapes Ranch Airport,37.66799927,-121.1989975,34,US,US-CA,Modesto,5CL3,,5CL3
5CL4,heliport,Natividad Medical Center Heliport,36.6977005,-121.651001,70,US,US-CA,Salinas,5CL4,,5CL4
5CL5,heliport,Kcin Emergency Heliport,33.68500137,-117.8550034,165,US,US-CA,Irvine,5CL5,,5CL5
5CL6,heliport,Edward Roybal Federal Bldg Heliport,34.05329895,-118.2389984,646,US,US-CA,Los Angeles,5CL6,,5CL6
5CL7,small_airport,Gene Wash Reservoir Airport,34.30810165,-114.1869965,860,US,US-CA,Parker Dam,5CL7,,5CL7
5CL8,small_airport,Creekside Airport,35.17610168,-118.9229965,335,US,US-CA,Arvin,5CL8,,5CL8
5CL9,small_airport,Table Mountain Field,37.1413,-119.508003,1280,US,US-CA,Auberry,5CL9,,5CL9
5CN5,heliport,Palmaz Ranch Heliport,40.036588,-120.763475,3760,US,US-CA,Taylorsville,5CN5,,5CN5
5Q2,heliport,US Forest Service Chester Heliport,40.28850174,-121.2429962,4526,US,US-CA,Chester,5Q2,,5Q2
60CA,heliport,Q Area Heliport,38.04489899,-122.0070038,49,US,US-CA,Concord,60CA,,60CA
60CL,small_airport,Chp Academy Airport,38.59880066,-121.560997,20,US,US-CA,Bryte,60CL,,60CL
60CN,heliport,San Gorgonio Memorial Hospital Heliport,33.930833,-116.942278,2596,US,US-CA,Banning,60CN,,60CN
60L,heliport,Engine Co Nr 108 Heliport,34.12670135,-118.4069977,1127,US,US-CA,Los Angeles,60L,,60L
61CA,small_airport,Bauer Airport,34.17470169,-116.0670013,1950,US,US-CA,Twentynine Palms,61CA,,61CA
61CL,small_airport,Johnson Brothers Airport,32.67340088,-115.5589981,-1,US,US-CA,Calexico,61CL,,61CL
61L,heliport,Engine Co Nr 109 Heliport,34.13079834,-118.4909973,1375,US,US-CA,Los Angeles/Van Nuys,61L,,61L
62CA,heliport,Bank of America Data Center Heliport,34.06219864,-118.2509995,440,US,US-CA,Los Angeles,62CA,,62CA
62CL,small_airport,Flying S Ranch Airport,35.40719986,-118.5,3485,US,US-CA,Caliente,62CL,,62CL
62CN,heliport,Trw Manhattan Beach Heliport,33.89699936,-118.3830032,94,US,US-CA,Manhattan Beach,62CN,,62CN
63CA,small_airport,Desert Air Sky Ranch Airport,33.48109818,-115.8740005,,US,US-CA,North Shore,63CA,,63CA
63CL,small_airport,G3 Ranch Airport,38.71659851,-122.1389999,360,US,US-CA,Capay,63CL,,63CL
63CN,small_airport,Meadowlark Field,37.66130066,-121.6940002,730,US,US-CA,Livermore,63CN,,63CN
64CA,heliport,Tahoe Forest Hospital Heliport,39.32410049,-120.1999969,5200,US,US-CA,Truckee,64CA,,64CA
64CL,small_airport,Goodyear Blimp Base Airport,33.85639954,-118.2770004,21,US,US-CA,Carson,64CL,,64CL
64CN,small_airport,Sunrise Dusters Airport,38.8166008,-121.7009964,25,US,US-CA,Knights Landing,64CN,,64CN
65CA,heliport,Sce San Joaquin Heliport,36.18220139,-119.3339996,279,US,US-CA,Tulare,65CA,,65CA
65CL,small_airport,Al Divine Airport,36.51440048,-119.7639999,252,US,US-CA,Caruthers,65CL,,65CL
65CN,small_airport,Bottimore Ranch Airport,38.30410004,-121.2509995,70,US,US-CA,Herald,65CN,,65CN
66CA,small_airport,Rancho San Simeon Airport,35.60770035,-121.1100006,320,US,US-CA,Cambria,66CA,,66CA
66CL,small_airport,Triangle T Ranch Airport,36.99860001,-120.4649963,130,US,US-CA,Chowchilla,66CL,,66CL
66CN,heliport,Northrop Palos Verdes Heliport,33.76060104,-118.3880005,1080,US,US-CA,Palos Verdes,66CN,,66CN
67CA,small_airport,Chapman Farms Airport,37.0727005,-120.3779984,175,US,US-CA,Chowchilla,67CA,,67CA
67CL,small_airport,Davis Airport,39.20100021,-122.0490036,45,US,US-CA,Colusa,67CL,,67CL
67CN,heliport,Pacific Gas & Electric Co Camp 5 Heliport,38.76850128,-120.5490036,3800,US,US-CA,Placerville,67CN,,67CN
68CA,small_airport,Lake California Air Park,40.36109924,-122.2160034,615,US,US-CA,Cottonwood,68CA,,68CA
68CL,small_airport,El Rico Airport,36.04579926,-119.6470032,181,US,US-CA,Corcoran,68CL,,68CL
68CN,small_airport,Porter Ranch Airport,36.02220154,-118.0950012,6800,US,US-CA,Kennedy Meadows,68CN,,68CN
69CA,heliport,Victor Valley Community Hospital Heliport,34.52775959,-117.2927427,2896,US,US-CA,Victorville,69CA,,69CA
69CL,small_airport,Medlock Field,38.6155014,-121.7470016,48,US,US-CA,Davis,69CL,,69CL
6CA0,heliport,Hotel New Otani Los Angeles Heliport,34.05081047,-118.2424378,490,US,US-CA,Los Angeles,6CA0,,6CA0
6CA1,small_airport,Triple R Ranch Airport,41.74269867,-121.8779984,4380,US,US-CA,Macdoel,6CA1,,6CA1
6CA2,heliport,Sce Rosemead Heliport,34.050103,-118.081132,229,US,US-CA,Rosemead,6CA2,,6CA2
6CA3,heliport,Catalina Air-Sea Terminal Heliport,33.74919891,-118.2750015,5,US,US-CA,San Pedro,6CA3,SPQ,6CA3
6CA4,heliport,East Valley Sheriff's Station Heliport,34.24670029,-118.8349991,917,US,US-CA,Thousand Oaks,6CA4,,6CA4
6CA5,small_airport,Valley Vista Airport,34.33720016,-116.5800018,3370,US,US-CA,Yucca Valley,6CA5,,6CA5
6CA6,small_airport,Eagle Ridge Ranch Airport,38.32770157,-120.4769974,2870,US,US-CA,Railroad Flat,6CA6,,6CA6
6CA7,small_airport,J&J Crop Dusters Inc Airport,35.18000031,-118.8550034,388,US,US-CA,Arvin,6CA7,,6CA7
6CA8,small_airport,Depue Airport,34.85639954,-117.137001,2313,US,US-CA,Lenwood,6CA8,,6CA8
6CA9,heliport,UCLA Emergency Medicine Department Heliport,34.06499863,-118.4430008,424,US,US-CA,Los Angeles,6CA9,,6CA9
6CL0,closed,Majors Airport,35.5261,-119.101997,640,US,US-CA,Bakersfield,,,
6CL2,heliport,White Pine Heliport,41.33050156,-120.0970001,4550,US,US-CA,Eagleville,6CL2,,6CL2
6CL3,heliport,William Shells County Heliport,34.38029861,-118.8690033,720,US,US-CA,Fillmore,6CL3,,6CL3
6CL4,small_airport,Manzanita Airport,37.45940018,-119.7419968,3020,US,US-CA,Mariposa,6CL4,,6CL4
6CL5,heliport,Majlar Heliport,34.15670013,-119.1679993,2420,US,US-CA,Ojai,6CL5,,6CL5
6CL6,small_airport,Mark Franz Private Strip,37.17490005,-119.6090012,2560,US,US-CA,O'Neals,6CL6,,6CL6
6CL7,heliport,Orange Co Sheriffs Forensics Lab Helistop,33.74750137,-117.8769989,223,US,US-CA,Santa Ana,6CL7,,6CL7
6CL8,small_airport,Harley Airport,37.95080185,-121.2429962,20,US,US-CA,Stockton,6CL8,,6CL8
6CL9,small_airport,Peoria Airport,37.92169952,-120.5149994,830,US,US-CA,Jamestown,6CL9,,6CL9
6CN6,heliport,Kaiser Permanente South Sacramento Heliport,38.469856,-121.420743,39,US,US-CA,Sacramento,6CN6,,6CN6
6Q0,heliport,Columbia Heliport,38.0345993,-120.4120026,2122,US,US-CA,Columbia,6Q0,,6Q0
70CA,heliport,The Wilshire Thayer Heliport,34.0625,-118.4329987,470,US,US-CA,Los Angeles,70CA,,70CA
70CL,small_airport,Amargosa Airport,36.29579926,-116.4260025,2037,US,US-CA,Death Valley Junction,70CL,,70CL
71CA,heliport,Fresh Pond Heliport,38.7602005,-120.5360031,3740,US,US-CA,Pollock Pines,71CA,,71CA
71CL,small_airport,Gunnersfield Ranch Airport,39.35269928,-122.0940018,62,US,US-CA,Delevan,71CL,,71CL
72CA,heliport,Quincy Helitack Base Heliport,39.98320007,-120.9509964,3500,US,US-CA,Quincy,72CA,,72CA
72CL,small_airport,Iron Mountain Pumping Plant Airport,34.13420105,-115.1190033,890,US,US-CA,Desert Center,72CL,,72CL
73CA,small_airport,Bear Valley STOLport,38.45880127,-120.0400009,7073,US,US-CA,Bear Valley,73CA,,73CA
73CL,small_airport,Julian Hinds Pump Plant Airstrip,33.69889832,-115.637001,1335,US,US-CA,Desert Center,73CL,,73CL
74CA,closed,R.I. San Bernardino G/L Helistop,34.074501,-117.268997,1030,US,US-CA,San Bernardino,,,
74CL,small_airport,Di Giorgio Ranch Landing Strip,35.25690079,-118.8330002,517,US,US-CA,Di Giorgio,74CL,,74CL
74L,heliport,Malibu Administrative Center Heliport,34.03720093,-118.6880035,29,US,US-CA,Malibu,74L,,74L
75CA,heliport,Civic Center Heliport,33.67779922,-118,157,US,US-CA,Huntington Beach,75CA,,75CA
75CL,closed,Willis Ranch Airport,37.065497,-120.567,115,US,US-CA,Dos Palos,,,
76CA,heliport,Bald Mountain Heliport,38.14440155,-120.0839996,5760,US,US-CA,Long Barn,76CA,,76CA
76CL,closed,Emmett Field,37.088799,-120.500999,135,US,US-CA,Dos Palos,,,
76CN,heliport,El Centro Regional Medical Center Heliport,32.779887,-115.568652,75,US,US-CA,El Centro,76CN,,76CN
77CA,small_airport,Daulton Airport,37.12080002,-119.987999,425,US,US-CA,Madera,77CA,,77CA
77CL,small_airport,Baker & Hall Airport,36.71770096,-119.137001,2150,US,US-CA,Dunlap,77CL,,77CL
78CA,heliport,Broadcom Corporation Heliport,33.65980148,-117.7669983,160,US,US-CA,Irvine,78CA,,78CA
79CA,heliport,St Mary Desert Valley Hospital Heliport,34.54291262,-117.268061,2840,US,US-CA,Apple Valley,79CA,,79CA
79CL,small_airport,Milhous Ranch Airport,39.32490158,-121.0759964,2625,US,US-CA,North San Juan,79CL,,79CL
7CA1,small_airport,Abraham Ranch Airport,34.41469955,-116.6230011,2850,US,US-CA,Lucerne Valley,7CA1,,7CA1
7CA2,small_airport,Paradise Lakes Airport,35.17670059,-118.927002,340,US,US-CA,Bakersfield,7CA2,,7CA2
7CA3,heliport,Mercy Medical Center Heliport,40.57210159,-122.3949966,715,US,US-CA,Redding,7CA3,,7CA3
7CA4,heliport,Desert Regional Medical Center Heliport,33.838461,-116.543899,560,US,US-CA,Palm Springs,7CA4,,7CA4
7CA5,heliport,Balch Camp Heliport,36.90629959,-119.1289978,1603,US,US-CA,Balch Camp,7CA5,,7CA5
7CA6,small_airport,West Side Field Station Airport,36.33879852,-120.1100006,280,US,US-CA,Five Points,7CA6,,7CA6
7CA7,heliport,Brian Chuchua Jeep Heliport,33.86109924,-117.8820038,195,US,US-CA,Placentia,7CA7,,7CA7
7CA8,heliport,Eisenhower Medical Center Heliport,33.7641,-116.4049,234,US,US-CA,Rancho Mirage,7CA8,,7CA8
7CA9,heliport,River Meadow Farm Heliport,38.4618988,-122.4150009,146,US,US-CA,Rutherford,7CA9,,7CA9
7CL0,small_airport,Du Bois Ranch Airport,36.70360184,-120.1350021,195,US,US-CA,Kerman,7CL0,,7CL0
7CL1,heliport,Children's Hospital Oakland Heliport,37.836169,-122.266741,134,US,US-CA,Oakland,7CL1,,7CL1
7CL2,heliport,Rogers Helicopters Inc Heliport,36.82379913,-119.6679993,370,US,US-CA,Clovis,7CL2,,7CL2
7CL3,heliport,Boeing Canoga Park Heliport,34.18830109,-118.6009979,800,US,US-CA,Los Angeles,7CL3,,7CL3
7CL4,heliport,Mcmwtc Heliport,38.36360168,-119.5199966,6762,US,US-CA,Bridgeport,7CL4,,7CL4
7CL5,heliport,Playa Vista 1 Heliport,33.98080063,-118.4049988,15,US,US-CA,Culver City,7CL5,,7CL5
7CL6,heliport,Playa Vista 2 Heliport,33.97969818,-118.4079971,13,US,US-CA,Culver City,7CL6,,7CL6
7CL7,heliport,Playa Vista 3 Heliport,33.97499847,-118.4160004,10,US,US-CA,Culver City,7CL7,,7CL7
7CL9,small_airport,Perryman Airport,38.69630051,-120.7310028,2600,US,US-CA,Placerville,7CL9,,7CL9
7L1,heliport,Carson Sheriff Station Heliport,33.83420181,-118.262001,17,US,US-CA,Carson,7L1,,7L1
7L5,heliport,L A County Sheriff's Department Heliport,34.00419998,-117.9369965,327,US,US-CA,City of Industry,7L5,,7L5
80CA,small_airport,Bacchi Valley Industries Airport,38.81740189,-120.9219971,760,US,US-CA,Lotus,80CA,,80CA
80CL,heliport,Blythe Service Center Heliport,33.60359955,-114.6050034,297,US,US-CA,Blythe,80CL,,80CL
80CN,heliport,Pine Valley Border Patrol Station Heliport,32.716072,-116.450054,3275,US,US-CA,Pine Valley,80CN,,80CN
80L,heliport,Los Angeles County Fire Station Nr 123 Heliport,34.38169861,-118.4150009,1805,US,US-CA,Newhall,80L,,80L
81CA,small_airport,7-M Ranch Airport,38.73160172,-122.5630035,1153,US,US-CA,Middletown,81CA,,81CA
81CL,heliport,Sandhill Heliport,37.92129898,-122.1959991,956,US,US-CA,Orinda,81CL,,81CL
81L,heliport,Sheriff's Wayside Heliport,34.46670151,-118.5950012,1200,US,US-CA,Valencia,81L,,81L
82CA,heliport,Sce Moorpark Substation Heliport,34.27939987,-118.9029999,470,US,US-CA,Moorpark,82CA,,82CA
82CL,small_airport,Fort Bragg Airport,39.47430038,-123.7959976,71,US,US-CA,Fort Bragg,82CL,FOB,82CL
83CA,heliport,The Met Heliport,33.688469,-117.877966,204,US,US-CA,Costa Mesa,83CA,,83CA
83L,heliport,Southeast Superior Court Heliport,33.91360092,-118.072998,235,US,US-CA,Norwalk,83L,,83L
84CA,heliport,Beverly Center Heliport,34.07389832,-118.3769989,278,US,US-CA,Los Angeles,84CA,,84CA
84CL,heliport,Century City Heliport,34.06079865,-118.4179993,473,US,US-CA,Los Angeles,84CL,CCD,84CL
84L,heliport,Norwalk Sheriff Station Heliport,33.91329956,-118.0699997,101,US,US-CA,Norwalk,84L,,84L
85CA,heliport,Redwood Coast Medical Services Heliport,38.77069855,-123.5299988,135,US,US-CA,Gualala,85CA,,85CA
86CA,heliport,Valley Medical Center Heliport,36.73720169,-119.7539978,307,US,US-CA,Fresno,86CA,,86CA
86CL,small_airport,Ernst Field,33.59719849,-116.8830032,2860,US,US-CA,Hemet,86CL,,86CL
86CN,heliport,Mercy Medical Center Merced Heliport,37.340819,-120.466636,194,US,US-CA,Merced,86CN,,86CN
87CA,closed,Swanson Ranch Nr 1 Airport,36.399899,-119.617995,248,US,US-CA,Hanford,,,
87CL,heliport,City National Plaza Heliport,34.05139923,-118.2570038,980,US,US-CA,Los Angeles,87CL,,87CL
87CN,heliport,Honda of Santa Ana Heliport,33.72710037,-117.8359985,113,US,US-CA,Santa Ana,87CN,,87CN
88CA,heliport,Regional Medical Center San Jose H2 Heliport,37.361464,-121.848503,120,US,US-CA,San Jose,88CA,,88CA
88CL,heliport,Park Place Heliport,33.67290115,-117.8460007,35,US,US-CA,Irvine,88CL,,88CL
89CA,small_airport,Swanson Ranch Nr 2 Airport,36.46659851,-119.8840027,237,US,US-CA,Riverdale,89CA,,89CA
89CL,heliport,Elwood Onshore Facility Heliport,34.43030167,-119.9120026,15,US,US-CA,Goleta,89CL,,89CL
8CA0,small_airport,Osborne Airport,34.58390045,-117.2669983,2900,US,US-CA,Victorville,8CA0,,8CA0
8CA1,heliport,Merle Norman Cosmetics (Sylmar) Heliport,34.30500031,-118.4649963,1215,US,US-CA,Sylmar,8CA1,,8CA1
8CA2,heliport,Auburn Cdf Heliport,38.93460083,-121.0530014,1635,US,US-CA,Auburn,8CA2,,8CA2
8CA3,heliport,High Hill Ranch Heliport,38.74209976,-120.7180023,2885,US,US-CA,Camino,8CA3,,8CA3
8CA4,heliport,Sce Eastern Division Heliport,34.10559845,-117.3519974,1205,US,US-CA,San Bernardino,8CA4,,8CA4
8CA5,small_airport,Pines Airpark,33.64559937,-117.1100006,1420,US,US-CA,Winchester,8CA5,,8CA5
8CA6,heliport,Yucca Valley Service Center Heliport,34.12609863,-116.413002,3238,US,US-CA,Yucca Valley,8CA6,,8CA6
8CA7,heliport,Platform Henry Heliport,34.33309937,-119.560997,111,US,US-CA,Carpinteria,8CA7,,8CA7
8CA8,small_airport,Wallom Field,38.06740189,-121.2080002,56,US,US-CA,Lodi,8CA8,,8CA8
8CA9,heliport,Kgtv-10 Parking Lot Heliport,32.71979904,-117.0979996,200,US,US-CA,San Diego,8CA9,,8CA9
8CL0,small_airport,Nichols Farms Airport,34.58890152,-117.8259964,2700,US,US-CA,Palmdale,8CL0,,8CL0
8CL1,small_airport,Lake Wohlford Resort Airport,33.17534732,-117.0023346,1643,US,US-CA,Escondido,8CL1,,8CL1
8CL2,small_airport,Lucchetti Ranch Airport,38.42350006,-121.2269974,96,US,US-CA,Elk Grove,8CL2,,8CL2
8CL3,heliport,NBC-TV Heliport,34.15359879,-118.3310013,505,US,US-CA,Burbank,8CL3,,8CL3
8CL4,heliport,A G Spanos Companies Hq Heliport,38.047638,-121.370251,96,US,US-CA,Stockton,8CL4,,8CL4
8CL5,heliport,R I Ai Canoga Park B/2 Helistop,34.23360062,-118.586998,900,US,US-CA,Los Angeles,8CL5,,8CL5
8CL6,small_airport,Moller Airport,39.28850174,-122.189003,85,US,US-CA,Maxwell,8CL6,,8CL6
8CL7,heliport,Lodi Memorial Hospital Heliport,38.122463,-121.286746,40,US,US-CA,Lodi,8CL7,,8CL7
8CL8,heliport,United Ca Bank Data Processing Ops Heliport,34.06969833,-118.2919998,367,US,US-CA,Los Angeles,8CL8,,8CL8
8CL9,small_airport,Bland Field,36.71239853,-120.0299988,222,US,US-CA,Kerman,8CL9,,8CL9
8Q0,small_airport,Travis Air Force Base Aero Club,38.26940155,-121.9749985,51,US,US-CA,Fairfield,8Q0,,8Q0
90CA,small_airport,Fowler's Airport,38.00350189,-121.1190033,77,US,US-CA,Linden,90CA,,90CA
90CL,small_airport,Diamond M Ranch Airport,39.57210159,-122.6090012,1296,US,US-CA,Elk Creek,90CL,,90CL
91CA,heliport,Devers Substation Heliport,33.93970108,-116.5749969,1150,US,US-CA,Desert Hot Springs,91CA,,91CA
91CL,small_airport,Sacatar Meadows Airport,35.98989868,-118.0800018,6427,US,US-CA,Kennedy Meadows,91CL,,91CL
92CA,small_airport,Westlake Farms Airport,36.12080002,-119.8880005,192,US,US-CA,Stratford,92CA,,92CA
92CL,small_airport,Moronis Airport,39.10319901,-121.8499985,35,US,US-CA,Meridian,92CL,,92CL
93CA,heliport,Fountain Valley Regional Hospital Heliport,33.71500015,-117.935997,38,US,US-CA,Fountain Valley,93CA,,93CA
93CL,heliport,Mc Carthy Ranch Heliport,36.84769821,-119.8249969,328,US,US-CA,Pinedale,93CL,,93CL
93CN,heliport,UCSD Jacobs Medical Center Rooftop Heliport,32.877679,-117.226762,538,US,US-CA,La Jolla,93CN,,93CN
94CA,heliport,Kaiser Hospital Heliport,34.072585,-117.432514,1214,US,US-CA,Fontana,94CA,,94CA
94CL,heliport,Loma Linda University Medical Center Heliport,34.050241,-117.264141,1223,US,US-CA,Loma Linda,94CL,,94CL
95CA,small_airport,Bonel Airport,35.66910172,-120.5490036,1030,US,US-CA,Whitley Garden,95CA,,95CA
95CL,heliport,Verdugo Hills Hospital Heliport,34.20420074,-118.2180023,1400,US,US-CA,Glendale,95CL,,95CL
95CN,heliport,Desert Valley Hospital HP,34.471609,-117.296843,3045,US,US-CA,Victorville,95CN,,95CN
96CA,heliport,Warner Center Plaza One Heliport,34.17890167,-118.598999,1133,US,US-CA,Woodland Hills,96CA,,96CA
96CL,heliport,Ranch Heliport,34.157704,-118.917802,1162,US,US-CA,Newbury Park,96CL,,96CL
97CA,small_airport,Tejon Agricultural Airport,34.98910141,-118.9150009,1065,US,US-CA,Lebec,97CA,,97CA
97CL,small_airport,Siller Bros Inc Airport,39.46020126,-121.5810013,235,US,US-CA,Oroville,97CL,,97CL
98CA,heliport,Everest & Jennings Helistop Nr 1 Heliport,34.04470062,-118.4449997,245,US,US-CA,Los Angeles,98CA,,98CA
98CL,small_airport,Noltas Airport,39.57899857,-122.2009964,145,US,US-CA,Willows,98CL,,98CL
98L,heliport,Pomona Police Department Heliport,34.05250168,-117.7929993,1001,US,US-CA,Pomona,98L,,98L
99CA,heliport,San Antonio Regional Hospital Heliport,34.102747,-117.636211,1274,US,US-CA,Upland,99CA,,99CA
99CL,small_airport,El Mirage Field Adelanto Airport,34.625,-117.6050034,2865,US,US-CA,El Mirage,99CL,,99CL
99CN,heliport,Banner Lassen Medical Center Heliport,40.437491,-120.628728,4419,US,US-CA,Susanville,99CN,,99CN
99L,closed,Pomona Superior Court Heliport,34.05249863,-117.7490005,1000,US,US-CA,Pomona,99L,,99L
9CA0,small_airport,Psk Ranch Airport,35.11389923,-118.5979996,3840,US,US-CA,Tehachapi,9CA0,,9CA0
9CA1,heliport,Barstow Service Center Heliport,34.87516028,-116.9959778,2240,US,US-CA,Barstow,9CA1,,9CA1
9CA2,heliport,Pioneers Memorial Hospital Heliport,32.95840073,-115.5550003,-99,US,US-CA,Brawley,9CA2,,9CA2
9CA3,heliport,Recreation and Conference Center Heliport,34.0196991,-117.9280014,701,US,US-CA,City of Industry,9CA3,,9CA3
9CA4,heliport,HDMC Holdings LLC Heliport,34.131379,-116.275786,2652,US,US-CA,Joshua Tree,9CA4,,9CA4
9CA5,heliport,California Mart Heliport,34.04029846,-118.2559967,434,US,US-CA,Los Angeles,9CA5,,9CA5
9CA6,small_airport,North Valley Airport,37.86909866,-118.0950012,4960,US,US-CA,Bishop,9CA6,,9CA6
9CA7,small_airport,Harris River Ranch Airport,36.76720047,-119.435997,450,US,US-CA,Sanger,9CA7,,9CA7
9CA8,heliport,Boeing Huntington Beach Heliport,33.74720001,-118.0339966,65,US,US-CA,Huntington Beach,9CA8,,9CA8
9CA9,heliport,Santa Fe International Corp Heliport,34.0807991,-118.1490021,460,US,US-CA,Alhambra,9CA9,,9CA9
9CL0,small_airport,Turlock Airpark,37.47079849,-120.8440018,100,US,US-CA,Turlock,9CL0,,9CL0
9CL1,closed,Johnson Ranch Airport,37.191101,-120.276001,240,US,US-CA,Le Grand,,,
9CL2,small_airport,Christensen Ranch Airport,36.8716011,-121.336998,380,US,US-CA,Hollister,9CL2,,9CL2
9CL3,small_airport,Likely Airport,41.24020004,-120.526001,4420,US,US-CA,Likely,9CL3,,9CL3
9CL4,small_airport,Hart Mine Airport,35.28329849,-115.1920013,4620,US,US-CA,Ivanpah,9CL4,,9CL4
9CL5,small_airport,Blair Strip,36.27519989,-119.6409988,231,US,US-CA,Hanford,9CL5,,9CL5
9CL6,heliport,Children's Hospital Central California Heliport,36.88325,-119.801557,354,US,US-CA,Madera,9CL6,,9CL6
9CL7,small_airport,Old Aerodrome,39.32490158,-121.3590012,700,US,US-CA,Marysville,9CL7,,9CL7
9CL8,heliport,Union Eva Heliport,33.6617012,-118.0619965,79,US,US-CA,Huntington Beach,9CL8,,9CL8
9CL9,small_airport,Spezia Airport,38.21659851,-121.5339966,,US,US-CA,Walnut Grove,9CL9,,9CL9
9CN1,heliport,Hazel Hawkins Memorial Hospital Heliport,36.834811,-121.386479,397,US,US-CA,Hollister,9CN1,,9CN1
A26,small_airport,Adin Airport,41.18600082,-120.9520035,4229,US,US-CA,Adin,A26,,A26
A28,small_airport,Fort Bidwell Airport,41.87630081,-120.1470032,4602,US,US-CA,Fort Bidwell,A28,,A28
C39,seaplane_base,Folsom Lake Seaplane Base,38.7071991,-121.1330032,466,US,US-CA,Folsom,C39,,C39
CA00,heliport,Platform Hermosa Heliport,34.45529938,-120.6470032,152,US,US-CA,Lompoc,CA00,,CA00
CA01,heliport,Burney Sheriff's Station Heliport,40.88359833,-121.6689987,3127,US,US-CA,Burney,CA01,,CA01
CA02,closed,Patterson Airport,37.468498,-121.168999,168,US,US-CA,Patterson,,,
CA03,small_airport,John Myers Airport,37.34989929,-120.2939987,280,US,US-CA,Planada,CA03,,CA03
CA04,small_airport,Flying N Ranch Airport,40.34629822,-122.3389969,530,US,US-CA,Cottonwood,CA04,,CA04
CA05,small_airport,Machado Dusters Airport,36.16019821,-119.8130035,192,US,US-CA,Stratford,CA05,,CA05
CA06,small_airport,Bates Field,41.4178009,-120.5690002,4400,US,US-CA,Alturas,CA06,,CA06
CA07,small_airport,Scheidel Ranch Airport,38.84019852,-121.5619965,28,US,US-CA,Pleasant Grove,CA07,,CA07
CA08,heliport,Sce Energy Control Center Heliport,34.08390045,-118.1449966,475,US,US-CA,Alhambra,CA08,,CA08
CA09,small_airport,Round Mountain Airport,41.88619995,-122.8440018,3500,US,US-CA,Klamath River,CA09,,CA09
CA10,closed,Coonrod Ranch Airport,41.6171,-122.319,3010,US,US-CA,Little Shasta,,,
CA11,small_airport,Mc Cloud Airstrip,41.27320099,-122.1220016,3540,US,US-CA,Mc Cloud,CA11,,CA11
CA12,heliport,Ipp Adelanto Heliport,34.54846009,-117.4363214,2980,US,US-CA,Adelanto,CA12,,CA12
CA13,small_airport,Kings River Community College Airport,36.60689926,-119.4629974,350,US,US-CA,Reedley,CA13,,CA13
CA14,heliport,U of C - Richmond Field Station Heliport,37.91379929,-122.3320007,17,US,US-CA,Richmond,CA14,,CA14
CA15,heliport,Sierra Nevada Memorial Hospital Heliport,39.22529984,-121.0479965,2450,US,US-CA,Grass Valley,CA15,,CA15
CA16,small_airport,Holtsmans Airport,38.72909927,-121.3889999,120,US,US-CA,Rio Linda,CA16,,CA16
CA17,small_airport,Peterson Airport,37.7234993,-120.8899994,158,US,US-CA,Riverbank,CA17,,CA17
CA18,small_airport,Sunrise Dusters Airport,38.872103,-121.709999,24,US,US-CA,Robbins,CA18,,CA18
CA19,small_airport,Camanche Skypark Airport,38.26380157,-120.9229965,520,US,US-CA,Ione,CA19,,CA19
CA20,small_airport,Eagle's Nest Airport,38.43050003,-121.0149994,220,US,US-CA,Ione,CA20,,CA20
CA21,small_airport,Limberlost Ranch Airport,39.22069931,-121.2149963,1650,US,US-CA,Rough and Ready,CA21,,CA21
CA22,small_airport,Lauppes Strip,38.75930023,-121.5849991,23,US,US-CA,Sacramento,CA22,,CA22
CA23,heliport,Maguire-California Hospital Helipad,34.03501129,-118.2662048,376,US,US-CA,Van Nuys,CA23,,CA23
CA24,heliport,Scripps Memorial Hospital La Jolla Heliport,32.88639832,-117.2249985,340,US,US-CA,La Jolla,CA24,,CA24
CA25,heliport,Mark Twain St Joseph's Hospital Heliport,38.19269943,-120.6740036,1033,US,US-CA,San Andreas,CA25,,CA25
CA26,heliport,Hall of Justice Heliport,37.77489853,-122.4049988,118,US,US-CA,San Francisco,CA26,,CA26
CA27,heliport,Alcatraz Heliport,37.82519913,-122.4209976,135,US,US-CA,San Francisco,CA27,,CA27
CA28,heliport,University Medical Center Heliport,33.91279984,-117.1959991,1563,US,US-CA,Moreno Valley,CA28,,CA28
CA29,heliport,Fontana Police Heliport,34.101716,-117.433729,1314,US,US-CA,Fontana,CA29,,CA29
CA30,heliport,Commodore Heliport,37.81079865,-122.4150009,10,US,US-CA,San Francisco,CA30,,CA30
CA31,heliport,Sanger Heliport,36.73220062,-119.5550003,374,US,US-CA,Sanger,CA31,,CA31
CA32,small_airport,San Joaquin Airport,36.606525,-120.219499,165,US,US-CA,San Joaquin,CA32,,CA32
CA33,heliport,County Medical Center Heliport,37.31420135,-121.9339981,148,US,US-CA,San Jose,CA33,,CA33
CA34,heliport,Flea Port Heliport,37.37360001,-121.8799973,76,US,US-CA,San Jose,CA34,,CA34
CA35,small_airport,San Rafael Airport,38.01689911,-122.5210037,5,US,US-CA,San Rafael,CA35,,CA35
CA36,heliport,American Display Heliport,33.55450058,-117.6080017,918,US,US-CA,Rancho Santa Margarita,CA36,,CA36
CA37,heliport,Dominican Santa Cruz Hospital Heliport,36.990655,-121.982508,115,US,US-CA,Santa Cruz,CA37,,CA37
CA38,small_airport,Totem Pole Ranch Airport,39.65129852,-120.439003,4986,US,US-CA,Calpine,CA38,,CA38
CA39,small_airport,Graywood Ranch Airport,38.43460083,-122.564003,450,US,US-CA,Santa Rosa,CA39,,CA39
CA40,small_airport,Central Valley Aviation Inc Airport,36.52130127,-119.6699982,276,US,US-CA,Selma,CA40,,CA40
CA41,small_airport,Quinn Airport,36.58330154,-119.6399994,310,US,US-CA,Selma,CA41,,CA41
CA42,small_airport,Mc Conville Airstrip,33.64360046,-117.4290009,2600,US,US-CA,Lake Elsinore,CA42,,CA42
CA43,heliport,Barton Memorial Hospital Heliport,38.91130066,-119.9970016,6298,US,US-CA,South Lake Tahoe,CA43,,CA43
CA44,small_airport,Sequoia Ranch Airport,36.14989853,-118.802002,1153,US,US-CA,Springville,CA44,,CA44
CA45,small_airport,Stevinson Strip,37.32490158,-120.8679962,79,US,US-CA,Stevinson,CA45,,CA45
CA46,heliport,Cedars-Sinai Medical Center Heliport,34.07640076,-118.3820038,334,US,US-CA,Los Angeles,CA46,,CA46
CA47,heliport,San Diego Police Headquarters Heliport,32.71530151,-117.151001,162,US,US-CA,San Diego,CA47,,CA47
CA48,heliport,Jones Heliport,37.979599,-121.2289963,35,US,US-CA,Stockton,CA48,,CA48
CA49,small_airport,Jones Farms Airport,36.20410156,-119.8410034,199,US,US-CA,Stratford,CA49,,CA49
CA50,heliport,Hughes/Malibu Heliport,34.04449844,-118.6940002,455,US,US-CA,Malibu,CA50,,CA50
CA51,small_airport,The Sea Ranch Airport,38.70460129,-123.4329987,360,US,US-CA,The Sea Ranch,CA51,,CA51
CA52,heliport,Ports O'Call Heliport,33.73210144,-118.276001,2,US,US-CA,San Pedro,CA52,,CA52
CA53,small_airport,Tews Field,40.67250061,-122.3420029,740,US,US-CA,Redding,CA53,,CA53
CA54,small_airport,33 Strip,37.67050171,-121.3280029,81,US,US-CA,Tracy,CA54,,CA54
CA55,heliport,Mission Hospital Helistop,33.56060028,-117.6660004,460,US,US-CA,Mission Viejo,CA55,,CA55
CA56,heliport,Correctional Training Facility Heliport,36.46720123,-121.3700027,180,US,US-CA,Soledad,CA56,,CA56
CA57,small_airport,Blake Sky Park Airport,38.45819855,-122.0459976,310,US,US-CA,Vacaville,CA57,,CA57
CA58,heliport,Emanuel Medical Center Heliport,37.51259,-120.839244,174,US,US-CA,Turlock,CA58,,CA58
CA59,small_airport,Vestal Strip,38.79159927,-121.5839996,23,US,US-CA,Verona,CA59,,CA59
CA60,small_airport,Deer Creek Ranch Airport,39.94990158,-121.9970016,280,US,US-CA,Vina,CA60,,CA60
CA61,heliport,SCE High Desert District Heliport,34.476549,-117.288432,2974,US,US-CA,Victorville,CA61,,CA61
CA62,small_airport,Mc Millan Assault Strip,35.71910095,-120.7679977,920,US,US-CA,Camp Roberts,CA62,,CA62
CA63,heliport,John Muir Walnut Creek Medical Center Heliport,37.912845,-122.041449,292,US,US-CA,Walnut Creek,CA63,,CA63
CA64,heliport,Olive View Medical Center Heliport,34.3268013,-118.4449997,1460,US,US-CA,Sylmar,CA64,,CA64
CA65,heliport,Alta Vista Heliport,36.97050095,-121.8619995,480,US,US-CA,Watsonville,CA65,,CA65
CA66,small_airport,Monterey Bay Academy Airport,36.90610123,-121.8430023,70,US,US-CA,Watsonville,CA66,,CA66
CA67,small_airport,Westley Airport,37.54800034,-121.2050018,96,US,US-CA,Westley,CA67,,CA67
CA68,heliport,Saddleback Memorial Medical Center Heliport,33.60829926,-117.7089996,398,US,US-CA,Laguna Hills,CA68,,CA68
CA69,small_airport,Avenal Airport,36.0041008,-120.1419983,790,US,US-CA,Avenal,CA69,,CA69
CA70,small_airport,Sun Hill Ranch Airport,34.75799942,-117.4970016,2984,US,US-CA,Helendale,CA70,,CA70
CA71,small_airport,Horse Shoe A Ranch Airport,38.43999863,-120.887001,750,US,US-CA,Drytown,CA71,,CA71
CA72,heliport,Community Memorial Hospital Heliport,34.274682,-119.259236,175,US,US-CA,Ventura,CA72,,CA72
CA73,small_airport,Vanderford Ranch Company Airport,39.09569931,-121.7160034,42,US,US-CA,Yuba City,CA73,,CA73
CA74,heliport,Hemet Valley Hospital Helistop,33.75,-116.9589996,1250,US,US-CA,Hemet,CA74,,CA74
CA75,small_airport,Reider Ranch Airport,32.63809967,-116.6389999,2655,US,US-CA,Potrero,CA75,,CA75
CA76,small_airport,Flying T Ranch Airport,33.07030106,-116.7519989,2500,US,US-CA,Ramona,CA76,,CA76
CA77,heliport,Ridgecrest Community Hospital Heliport,35.64110184,-117.6709976,2290,US,US-CA,Ridgecrest,CA77,,CA77
CA78,heliport,City Hall Heliport,33.97919846,-117.375,977,US,US-CA,Riverside,CA78,,CA78
CA79,heliport,The Ritz-Carlton Hotel Company Heliport,33.98450089,-118.4499969,149,US,US-CA,Marina Del Rey,CA79,,CA79
CA80,closed,San Bernardino County Medical Center Heliport,34.12779999,-117.2679977,1124,US,US-CA,San Bernardino,CA80,,CA80
CA81,heliport,Riverside Metro Center Heliport,33.98249817,-117.3759995,950,US,US-CA,Riverside,CA81,,CA81
CA82,heliport,Corona Regional Medical Center Heliport,33.87310028,-117.5680008,695,US,US-CA,Corona,CA82,,CA82
CA83,heliport,Gilbert Aviation Heliport,36.44269943,-119.3160019,310,US,US-CA,Visalia,CA83,,CA83
CA84,small_airport,Torrey Pines Gliderport,32.88970184,-117.2470016,372,US,US-CA,San Diego,CA84,,CA84
CA85,heliport,Opus Center Irvine Heliport,33.68360138,-117.8529968,36,US,US-CA,Irvine,CA85,,CA85
CA86,heliport,Northridge Hospital Heliport,34.22004973,-118.5326126,864,US,US-CA,Los Angeles,CA86,,CA86
CA87,heliport,SCE Songs Mesa Heliport,33.379501,-117.559998,100,US,US-CA,San Clemente,CA87,,CA87
CA88,small_airport,San Ardo Field,36.02610016,-120.9079971,441,US,US-CA,San Ardo,CA88,,CA88
CA89,small_airport,Skylark Field,33.63000107,-117.302002,1253,US,US-CA,Lake Elsinore,CA89,,CA89
CA90,small_airport,Cadiz Airstrip,34.51390076,-115.5189972,780,US,US-CA,Cadiz,CA90,,CA90
CA91,heliport,Johnson Heliport,34.0080986,-117.3349991,904,US,US-CA,Riverside,CA91,,CA91
CA92,small_airport,Paradise Skypark Airport,39.71060181,-121.6169968,1300,US,US-CA,Paradise,CA92,,CA92
CA93,heliport,First Interstate Bank Building Heliport,33.75360107,-117.8679962,245,US,US-CA,Santa Ana,CA93,,CA93
CA94,heliport,Albalisa Dinner Playhouse Inc Heliport,33.76699829,-117.9179993,33,US,US-CA,Santa Ana,CA94,,CA94
CA95,heliport,St Joseph Medical Center Heliport,34.1556015,-118.3290024,568,US,US-CA,Burbank,CA95,,CA95
CA96,heliport,Goleta Valley Community Hospital Heliport,34.433876,-119.809494,45,US,US-CA,Santa Barbara,CA96,,CA96
CA97,small_airport,Christy Airstrip,34.0196991,-119.8529968,250,US,US-CA,Santa Barbara,CA97,,CA97
CA98,heliport,Platform Ocs P-0188 Hondo Heliport,34.39070129,-120.1220016,142,US,US-CA,Santa Barbara,CA98,,CA98
CA99,heliport,Kilroy Ac8-Long Beach Heliport,33.80720139,-118.1460037,121,US,US-CA,Long Beach,CA99,,CA99
CL00,heliport,Usc University Hospital Heliport,34.05390167,-118.2020035,476,US,US-CA,Los Angeles,CL00,,CL00
CL01,small_airport,Eagle Field,36.89989853,-120.6679993,153,US,US-CA,Dos Palos,CL01,,CL01
CL02,heliport,Kilroy Airport Center Heliport,33.93249893,-118.3850021,255,US,US-CA,El Segundo,CL02,,CL02
CL03,heliport,Airport Towers Nr 1 Heliport,33.91699982,-118.3949966,404,US,US-CA,El Segundo,CL03,,CL03
CL04,small_airport,Sky Way Estates Airport,38.41070175,-121.2350006,92,US,US-CA,Elk Grove,CL04,,CL04
CL05,heliport,First Interstate Bank Operations Center Heliport,37.54800034,-121.9800034,112,US,US-CA,Fremont,CL05,,CL05
CL06,heliport,Glendale Adventist Medical Center/Gamc Heliport,34.151708,-118.230561,717,US,US-CA,Glendale,CL06,,CL06
CL07,heliport,Queen Mary Heliport,33.74940109,-118.1880035,14,US,US-CA,Long Beach,CL07,,CL07
CL08,heliport,Biltmore Hotel Heliport,34.04919815,-118.2529984,443,US,US-CA,Los Angeles,CL08,,CL08
CL09,heliport,Sharp Chula Vista Medical Center Heliport,32.61949921,-117.0230026,446,US,US-CA,Chula Vista,CL09,,CL09
CL10,heliport,Anacapa View Estates Heliport,34.04169846,-118.8529968,625,US,US-CA,Malibu,CL10,,CL10
CL11,small_airport,Ferdun Ranch Airport,38.13460159,-121.2200012,64,US,US-CA,Lodi,CL11,,CL11
CL12,heliport,St Vincent Professional Office Building Heliport,34.06389999,-118.2730026,464,US,US-CA,Los Angeles,CL12,,CL12
CL13,small_airport,Brian Ranch Airport,34.51530075,-117.762001,3230,US,US-CA,Palmdale,CL13,,CL13
CL14,heliport,Huntington Memorial Hospital Heliport,34.134335,-118.152124,854,US,US-CA,Pasadena,CL14,,CL14
CL15,heliport,Sce Ridgecrest Service Center Heliport,35.61470032,-117.6689987,2288,US,US-CA,Ridgecrest,CL15,,CL15
CL16,heliport,Turner Field/Amphibious Base Heliport,32.67844984,-117.1555853,12,US,US-CA,Coronado,CL16,,CL16
CL17,heliport,Barstow Community Hospital Heliport,34.89405146,-117.0182763,2255,US,US-CA,Barstow,CL17,,CL17
CL18,small_airport,Danby Airstrip,34.55500031,-115.3560028,1400,US,US-CA,Danby,CL18,,CL18
CL19,heliport,Bank of America Glendale Heliport,34.1556015,-118.2559967,560,US,US-CA,Glendale,CL19,,CL19
CL20,heliport,Wells Fargo-Cv Heliport,34.04169846,-118.2720032,260,US,US-CA,Los Angeles,CL20,,CL20
CL21,heliport,Sutter Amador Hospital Heliport,38.34999847,-120.7630005,1246,US,US-CA,Jackson,CL21,,CL21
CL22,heliport,Sheriff's Station Heliport,34.41609955,-118.552002,1200,US,US-CA,Valencia,CL22,,CL22
CL23,small_airport,Jones/Ag-Viation Airport,39.45959854,-121.6959991,109,US,US-CA,Biggs,CL23,,CL23
CL24,small_airport,Kindsvater Ranch Airport,36.84989929,-119.5100021,529,US,US-CA,Clovis,CL24,,CL24
CL25,small_airport,7R Ranch Airport,34.9355011,-119.4520035,3176,US,US-CA,Cuyama,CL25,,CL25
CL26,heliport,Great Western Helistop,34.23874767,-118.565927,1018,US,US-CA,Chatsworth,CL26,,CL26
CL27,heliport,Wells Fargo-El Monte Heliport,34.07021,-118.071873,261,US,US-CA,El Monte,CL27,,CL27
CL28,heliport,Morongo Basin CHP Heliport,34.134168,-116.273929,2485,US,US-CA,Joshua Tree,CL28,,CL28
CL29,small_airport,Camino Airstrip,34.83499908,-114.9570007,2079,US,US-CA,Goffs,CL29,,CL29
CL30,heliport,Queensway Bay Heliport,33.75500107,-118.1949997,12,US,US-CA,Long Beach,CL30,,CL30
CL31,heliport,Caltrans District 7 Heliport,34.05149841,-118.2429962,484,US,US-CA,Los Angeles,CL31,,CL31
CL32,heliport,Fib Administration & Operations Building Heliport,34.05360031,-118.2649994,430,US,US-CA,Los Angeles,CL32,,CL32
CL33,small_airport,Pauma Valley Air Park,33.31060028,-116.9980011,756,US,US-CA,Pauma Valley,CL33,,CL33
CL34,heliport,First Interstate Bank Heliport,34.26860046,-118.7180023,974,US,US-CA,Simi Valley,CL34,,CL34
CL35,small_airport,Warner Springs Gliderport Airport,33.2845,-116.675003,2885,US,US-CA,Warner Springs,CL35,,CL35
CL36,small_airport,Allan Ranch Flight Park Ultralightport,38.56940079,-122.8040009,160,US,US-CA,Windsor,CL36,,CL36
CL37,heliport,Enloe Hospital Heliport,39.741956,-121.85032,253,US,US-CA,Chico,CL37,,CL37
CL38,heliport,Swepi Beta Platform Eureka Heliport,33.56389999,-118.1179962,123,US,US-CA,Huntington Beach,CL38,,CL38
CL39,heliport,St. Helena Fire Department Heliport,38.54850006,-122.5110016,308,US,US-CA,St Helena,CL39,,CL39
CL40,heliport,Antelope Valley Service Center Heliport,34.64749908,-118.1460037,2522,US,US-CA,Lancaster,CL40,,CL40
CL41,heliport,Oakland Convention Center Heliport,37.80239868,-122.2740021,110,US,US-CA,Oakland,CL41,,CL41
CL42,heliport,Mission Viejo Company Helistop,33.57220078,-117.7259979,408,US,US-CA,Aliso Viejo,CL42,,CL42
CL43,heliport,Boeing Seal Beach (Ground Level) Heliport,33.75500107,-118.0930023,20,US,US-CA,Seal Beach,CL43,,CL43
CL44,heliport,Orange County Steel Salvage Heliport,33.84820175,-117.8499985,230,US,US-CA,Anaheim,CL44,,CL44
CL45,heliport,North Net Training Authority Heliport,33.795054,-117.881025,145,US,US-CA,Anaheim,CL45,,CL45
CL46,small_airport,Quail Lake Sky Park Airport,34.76779938,-118.7320023,3370,US,US-CA,Gorman/Lancaster,CL46,,CL46
CL47,heliport,Hoag Heliport,33.23419952,-116.9680023,1650,US,US-CA,Valley Center,CL47,,CL47
CL48,heliport,Va Medical Center Heliport,33.7757988,-118.1200027,76,US,US-CA,Long Beach,CL48,,CL48
CL49,heliport,International Tower Heliport,34.04639816,-118.2630005,542,US,US-CA,Los Angeles,CL49,,CL49
CL50,heliport,Westwood Gateway Heliport,34.04779816,-118.4449997,321,US,US-CA,Los Angeles,CL50,,CL50
CL51,heliport,Santa Rosa Memorial Hospital Heliport,38.44380188,-122.7009964,208,US,US-CA,Santa Rosa,CL51,,CL51
CL52,heliport,San Joaquin General Hospital Heliport,37.88769913,-121.2850037,15,US,US-CA,Stockton,CL52,,CL52
CL53,heliport,Redbud Community Hospital Heliport,38.92900085,-122.6149979,1407,US,US-CA,Clearlake,CL53,,CL53
CL54,heliport,Westside Towers Heliport,34.03310013,-118.4530029,325,US,US-CA,Los Angeles,CL54,,CL54
CL55,heliport,Sce Serrano Substation Heliport,33.82860184,-117.7910004,697,US,US-CA,Orange,CL55,,CL55
CL56,small_airport,Ranchaero Airport,39.71960068,-121.8710022,173,US,US-CA,Chico,CL56,,CL56
CL57,heliport,Torrey Pines Corporate Helistop,32.90890121,-117.2429962,430,US,US-CA,San Diego,CL57,,CL57
CL58,heliport,Sce Southeastern Division Heliport,33.73089981,-117.8470001,97,US,US-CA,Santa Ana,CL58,,CL58
CL59,heliport,Camp 11 Heliport,34.43830109,-118.288002,2220,US,US-CA,Agua Dulce,CL59,,CL59
CL60,heliport,Memorial Hospital Heliport,35.39110184,-119.0059967,500,US,US-CA,Bakersfield,CL60,,CL60
CL61,heliport,Kern Medical Center Heliport,35.382484,-118.969656,505,US,US-CA,Bakersfield,CL61,,CL61
CL62,heliport,Station 125 Heliport,34.15029907,-118.697998,850,US,US-CA,Calabasas,CL62,,CL62
CL63,heliport,Castaic Dam Heliport,34.51720047,-118.598999,1520,US,US-CA,Castaic,CL63,,CL63
CL64,heliport,Washington Hospital Parking Structure Heliport,37.557473,-121.978139,57,US,US-CA,Fremont,CL64,,CL64
CL65,heliport,H.B.P.D. Heliport,33.69499969,-118.0009995,56,US,US-CA,Huntington Beach,CL65,,CL65
CL66,heliport,Camp 2 Heliport,34.19720078,-118.1740036,1120,US,US-CA,La Canada,CL66,,CL66
CL67,heliport,Platform Hidalgo Heliport,34.49499893,-120.7030029,162,US,US-CA,Lompoc,CL67,,CL67
CL68,heliport,Platform Harvest Heliport,34.46920013,-120.6819992,178,US,US-CA,Lompoc,CL68,,CL68
CL69,heliport,Sutter Lakeside Hospital Heliport,39.10509872,-122.9069977,1401,US,US-CA,Lakeport,CL69,,CL69
CL70,heliport,Queen of Angel-Hollywood Presbyterian Hospital Heliport,34.096428,-118.290323,524,US,US-CA,Los Angeles,CL70,,CL70
CL71,heliport,Hughes/Corporate Heliport,33.96609879,-118.4240036,75,US,US-CA,Los Angeles,CL71,,CL71
CL72,heliport,Camp 8 Heliport,34.06200027,-118.6470032,1525,US,US-CA,Malibu,CL72,,CL72
CL73,heliport,Rotor-Aids Maintenance Hangar Heliport,34.20220184,-119.2030029,43,US,US-CA,Oxnard,CL73,,CL73
CL74,small_airport,Skyotee Ranch Airport,34.83190155,-118.401001,2600,US,US-CA,Rosamond,CL74,,CL74
CL75,heliport,Robert D Cloud Heliport,34.052303,-118.080693,312,US,US-CA,Rosemead,CL75,,CL75
CL76,heliport,U S Naval Medical Center San Diego Heliport,32.725019,-117.144291,200,US,US-CA,San Diego,CL76,,CL76
CL77,small_airport,Bonny Doon Village Airport,37.07049942,-122.1269989,2020,US,US-CA,Santa Cruz,CL77,,CL77
CL78,heliport,Camp 14 Heliport,34.56610107,-118.4769974,1870,US,US-CA,Saugus,CL78,,CL78
CL79,heliport,SCE Tiffany Pines Heliport,37.11723,-119.313374,5548,US,US-CA,Shaver Lake,CL79,,CL79
CL80,heliport,Sherman Oaks Community Hospital Heliport,34.15999985,-118.4499969,697,US,US-CA,Sherman Oaks,CL80,,CL80
CL81,heliport,Camp 15 Heliport,34.28939819,-118.288002,1520,US,US-CA,Sunland,CL81,,CL81
CL82,heliport,Los Robles Regional Medical Center Heliport,34.20669937,-118.8830032,760,US,US-CA,Thousand Oaks,CL82,,CL82
CL83,heliport,Joe Heidrick Heliport,38.66550064,-121.8259964,120,US,US-CA,Woodland,CL83,,CL83
CL84,small_airport,Ahlem Farms Airport,37.38830185,-120.927002,73,US,US-CA,Hilmar,CL84,,CL84
CL85,heliport,Infineon Raceway Pad 1 Heliport,38.1582333,-122.4563167,115,US,US-CA,Sonoma,CL85,,CL85
CL86,heliport,Mc Candless Towers Heliport,37.38550186,-121.9720001,201,US,US-CA,Santa Clara,CL86,,CL86
CL87,heliport,Haddicks Heliport,34.02809906,-117.9649963,306,US,US-CA,City of Industry,CL87,,CL87
CL88,closed,Wesinger Ranch Airport,41.447102,-120.584,4300,US,US-CA,Alturas,,,
CL89,heliport,Los Angeles Times - Northridge Heliport,34.23882084,-118.5694903,859,US,US-CA,Chatsworth,CL89,,CL89
CL90,closed,Butte Creek Hog Ranch Airport,39.688801,-121.783997,200,US,US-CA,Chico,,,
CL91,heliport,Auberry Hydro Service Center Heliport,37.06489944,-119.4840012,2000,US,US-CA,Auberry,CL91,,CL91
CL92,heliport,Sce Saddleback Service Center Heliport,33.65499878,-117.7050018,391,US,US-CA,Irvine,CL92,,CL92
CL93,heliport,Sce Shaver Summit Heliport,37.16379929,-119.2919998,5755,US,US-CA,Shaver Lake,CL93,,CL93
CL94,heliport,Plumas District Hospital Heliport,39.94025309,-120.9620261,3425,US,US-CA,Quincy,CL94,,CL94
CL95,heliport,County Heliport,34.10329819,-117.2720032,1040,US,US-CA,San Bernardino,CL95,,CL95
CL96,heliport,Vaca Valley Hospital Heliport,38.35570145,-121.9509964,110,US,US-CA,Vacaville,CL96,,CL96
CL97,heliport,Mercy Hospital & Medical Center Heliport,32.75120163,-117.1600037,330,US,US-CA,San Diego,CL97,,CL97
CL98,heliport,Rockwell Facility Heliport,33.75780106,-118.0849991,12,US,US-CA,Seal Beach,CL98,,CL98
CL99,heliport,Watsonville Community Hospital Heliport,36.93999863,-121.776001,111,US,US-CA,Watsonville,CL99,,CL99
CLG,closed,Coalinga Airport,36.15804334,-120.360117,,US,US-CA,,,CLG,
CN01,heliport,Mendocino Coast District Hospital Heliport,39.43199921,-123.8000031,108,US,US-CA,Fort Bragg,CN01,,CN01
CN02,heliport,San Francisco Va Medical Center Heliport,37.783331,-122.506389,350,US,US-CA,San Francisco,CN02,,CN02
CN06,heliport,Infineon Raceway Pad 2 Heliport,38.155081,-122.450692,110,US,US-CA,Sonoma,CN06,,CN06
CN10,heliport,Mono County Medical Heliport,38.25329971,-119.2310028,6450,US,US-CA,Bridgeport,CN10,,CN10
CN11,heliport,Uc Davis Medical Center Life Flight Base Heliport,38.55110168,-121.4509964,32,US,US-CA,Sacramento,CN11,,CN11
CN12,small_airport,Williams Gliderport,39.16350174,-122.1320038,68,US,US-CA,Williams,CN12,,CN12
CN13,small_airport,Borges - Clarksburg Airport,38.44319916,-121.5090027,12,US,US-CA,Clarksburg,CN13,,CN13
CN14,heliport,Queen of the Valley Hospital Heliport,38.32389832,-122.2969971,49,US,US-CA,Napa,CN14,,CN14
CN15,small_airport,Vineyard Oaks Farm Airport,36.36920166,-119.7860031,210,US,US-CA,Lemore,CN15,,CN15
CN16,heliport,Mercy Hospital of Folsom Heliport,38.670861,-121.142839,335,US,US-CA,Folsom,CN16,,CN16
CN17,heliport,Childrens Hospital and Health Center Heliport,32.79919815,-117.1520004,445,US,US-CA,San Diego,CN17,,CN17
CN19,small_airport,Las Serpientes Airport,37.93310165,-121.612999,10,US,US-CA,Knightsen,CN19,,CN19
CN20,seaplane_base,Ferndale Resort Seaplane Base,39.00299835,-122.7969971,1326,US,US-CA,Kelseyville,CN20,,CN20
CN22,closed,Northrop Anaheim Heliport,33.865002,-117.917,160,US,US-CA,Anaheim,,,
CN23,small_airport,Harvard Airport,34.96170044,-116.6750031,1825,US,US-CA,Yermo,CN23,,CN23
CN24,small_airport,Flying R Airport,38.28300095,-121.2549973,70,US,US-CA,Galt,CN24,,CN24
CN25,heliport,The Westin Bonaventure Hotel Heliport,34.05279922,-118.2559967,679,US,US-CA,Los Angeles,CN25,,CN25
CN26,heliport,Rodgers Flat Heliport,39.96659851,-121.2839966,1560,US,US-CA,Belden,CN26,,CN26
CN27,heliport,Hughes/Canoga Park Heliport,34.23749924,-118.6259995,845,US,US-CA,Canoga Park,CN27,,CN27
CN28,heliport,Big Creek Helistop,37.2010994,-119.2519989,4960,US,US-CA,Big Creek,CN28,,CN28
CN29,small_airport,J-B Airport,37.93519974,-121.0149994,103,US,US-CA,Farmington,CN29,,CN29
CN30,heliport,Oceanside Fire Department Heliport,33.211584,-117.3541661,30,US,US-CA,Oceanside,CN30,,CN30
CN32,heliport,Boeing De Soto Heliport,34.23469925,-118.5849991,875,US,US-CA,Canoga Park,CN32,,CN32
CN33,heliport,Airport Imperial Bldg Helistop,33.93030167,-118.3970032,238,US,US-CA,El Segundo,CN33,,CN33
CN34,heliport,"Pg&E, Fresno Service Center Heliport",36.7193985,-119.7600021,289,US,US-CA,Fresno,CN34,,CN34
CN35,closed,Hughes/Space & Comm. Heliport,33.930302,-118.398003,183,US,US-CA,El Segundo,,,
CN36,heliport,Shaws Hill Heliport,39.23320007,-121.0510025,2900,US,US-CA,Grass Valley,CN36,,CN36
CN37,small_airport,Kelso Valley Airport,35.38130188,-118.2310028,4047,US,US-CA,Mojave,CN37,,CN37
CN38,small_airport,Flying B Ranch Airport,38.34130096,-121.4369965,19,US,US-CA,Franklin,CN38,,CN38
CN39,heliport,Operating Engineers Pension Trust Bldg Heliport,34.06200027,-118.2910004,441,US,US-CA,Los Angeles,CN39,,CN39
CN42,small_airport,Double Creek Ranch Airport,40.4457016,-121.8820038,2030,US,US-CA,Manton,CN42,,CN42
CN43,heliport,Boeing Anaheim B/250 Heliport,33.85969925,-117.8499985,342,US,US-CA,Anaheim,CN43,,CN43
CN44,small_airport,Flying Bull Airport,37.62049866,-121.163002,40,US,US-CA,Modesto,CN44,,CN44
CN45,heliport,Bear Valley Hospital Heliport,34.24670029,-116.8880005,6800,US,US-CA,Big Bear Lake,CN45,,CN45
CN46,heliport,The McConnell Foundation Heliport,40.59820175,-122.3320007,643,US,US-CA,Redding,CN46,,CN46
CN47,heliport,Pacoima Dam Heliport,34.334004,-118.397252,2039,US,US-CA,Los Angeles,CN47,,CN47
CN49,heliport,Sutter Roseville Medical Center Heliport,38.766623,-121.248044,286,US,US-CA,Roseville,CN49,,CN49
CN51,heliport,Community Regional Medical Center Heliport,36.743698,-119.785004,415,US,US-CA,Fresno,CN51,,CN51
CN52,heliport,Oroville Hospital Heliport,39.50743,-121.541572,255,US,US-CA,Oroville,CN52,,CN52
CN53,heliport,Kings County Houston Ave. Heliport,36.299861,-119.594861,239,US,US-CA,Hanford,CN53,,CN53
CN88,heliport,Kaiser Permanente Vacaville Heliport,38.3887,-121.9405,100,US,US-CA,Vacaville,CN88,,CN88
CN93,heliport,Sierra Vista Regional Medical Center Heliport,35.293729,-120.665988,235,US,US-CA,San Luis Obispo,CN93,,CN93
CN95,small_airport,Heritage Field Airport,37.9933056,-121.4922903,-24,US,US-CA,Stockton,CN95,,CN95
CN98,small_airport,Walter'S Camp Airport,33.245556,-114.710278,309,US,US-CA,Palo Verde,CN98,,CN98
CN99,small_airport,Del Mar Farms Airport,37.5464444,-121.1585778,65,US,US-CA,Patterson,CN99,,CN99
CSL,heliport,O'Sullivan Army Heliport,35.3263,-120.7431,238,US,US-CA,Camp San Luis Obispo,KCSL,,CSL
CVH,small_airport,Hollister Municipal Airport,36.8932991,-121.4100037,230,US,US-CA,Hollister,KCVH,HLI,CVH
CVR,closed,Hughes Airport,33.975,-118.417,17,US,US-CA,Culver City,,CVR,
D63,small_airport,Dinsmore Airport,40.49290085,-123.5999985,2375,US,US-CA,Dinsmore,D63,,D63
E20,seaplane_base,Lake Berryessa Seaplane Base,38.59159851,-122.2590027,440,US,US-CA,Napa,E20,,E20
E27,small_airport,Elk Grove Airport,38.39239883,-121.3310013,54,US,US-CA,Elk Grove,E27,,E27
E36,small_airport,Georgetown Airport,38.92110062,-120.8649979,2623,US,US-CA,Georgetown,E36,,E36
E55,small_airport,Ocean Ridge Airport,38.80130005,-123.5299988,940,US,US-CA,Gualala,E55,,E55
E79,small_airport,Sierra Sky Park Airport,36.84019852,-119.8700027,321,US,US-CA,Fresno,E79,,E79
F25,small_airport,Brownsville Airport,39.4552002,-121.2919998,2120,US,US-CA,Brownsville,F25,,F25
H47,small_airport,Hyampom Airport,40.62760162,-123.4710007,1250,US,US-CA,Hyampom,H47,,H47
H77,seaplane_base,Bridge Bay Resort Seaplane Base,40.75759888,-122.322998,1065,US,US-CA,Redding,H77,,H77
HGT,heliport,Tusi AHP (Hunter Liggett) Heliport,35.99349976,-121.2369995,1017,US,US-CA,Fort Hunter Ligget Jolon,KHGT,HGT,HGT
JMC,heliport,Commodore Center Heliport,37.87852,-122.51297,7,US,US-CA,Sausalito,KJMC,,JMC
K0O2,small_airport,Baker Airport,35.28549957,-116.0830002,922,US,US-CA,Baker,K0O2,,0O2
K0Q5,small_airport,Shelter Cove Airport,40.02759933,-124.072998,69,US,US-CA,Shelter Cove,K0Q5,,0Q5
K1O2,small_airport,Lampson Field,38.99060059,-122.901001,1379,US,US-CA,Lakeport,1O2,CKE,1O2
K1O3,small_airport,Lodi Airport,38.20240021,-121.2679977,60,US,US-CA,Lodi,K1O3,,1O3
K1O5,small_airport,Montague-Yreka Rohrer Field,41.73040009,-122.5459976,2527,US,US-CA,Montague,K1O5,ROF,1O5
K1Q2,small_airport,Spaulding Airport,40.65029907,-120.7689972,5116,US,US-CA,Susanville,K1Q2,,1Q2
K1Q4,small_airport,New Jerusalem Airport,37.67910004,-121.3000031,62,US,US-CA,Tracy,K1Q4,,1Q4
K2O1,small_airport,Gansner Field,39.94390106,-120.9449997,3415,US,US-CA,Quincy,K2O1,GNF,2O1
K2O3,small_airport,Angwin Parrett Field,38.57849884,-122.4349976,1848,US,US-CA,Angwin,K2O3,,2O3
K2O6,small_airport,Chowchilla Airport,37.11240005,-120.2470016,242,US,US-CA,Chowchilla,K2O6,,2O6
K2O7,small_airport,Independence Airport,36.81380081,-118.2050018,3908,US,US-CA,Independence,K2O7,,2O7
K36S,small_airport,Happy Camp Airport,41.79069901,-123.3889999,1209,US,US-CA,Happy Camp,K36S,,36S
K3O1,small_airport,Gustine Airport,37.26269913,-120.9629974,75,US,US-CA,Gustine,K3O1,,3O1
K49X,small_airport,Chemehuevi Valley Airport,34.52750015,-114.4309998,631,US,US-CA,Chemehuevi Valley,K49X,,49X
K9L2,small_airport,Edwards Af Aux North Base Airport,34.99079895,-117.862999,2299,US,US-CA,Edwards,K9L2,,9L2
KA24,small_airport,California Pines Airport,41.41239929,-120.6839981,4398,US,US-CA,Alturas,A24,,A24
KA30,small_airport,Scott Valley Airport,41.55820084,-122.8550034,2728,US,US-CA,Fort Jones,A30,,A30
KA32,small_airport,Butte Valley Airport,41.8871994,-121.9759979,4243,US,US-CA,Dorris,A32,,A32
KAAT,small_airport,Alturas Municipal Airport,41.48300171,-120.5650024,4378,US,US-CA,Alturas,KAAT,,AAT
KACV,medium_airport,California Redwood Coast-Humboldt County Airport,40.978101,-124.109,221,US,US-CA,Arcata/Eureka,KACV,ACV,ACV
KAHC,small_airport,Amedee Army Air Field,40.26620102,-120.1529999,4012,US,US-CA,Herlong,KAHC,AHC,AHC
KAJO,small_airport,Corona Municipal Airport,33.89770126,-117.6019974,533,US,US-CA,Corona,KAJO,,AJO
KAPC,small_airport,Napa County Airport,38.2132,-122.280998,35,US,US-CA,Napa,KAPC,APC,APC
KAPV,small_airport,Apple Valley Airport,34.57529831,-117.185997,3062,US,US-CA,Apple Valley,KAPV,APV,APV
KAUN,small_airport,Auburn Municipal Airport,38.95479965,-121.0820007,1539,US,US-CA,Auburn,KAUN,AUN,AUN
KAVX,small_airport,Catalina Airport,33.4049,-118.416,1602,US,US-CA,Avalon,KAVX,AVX,AVX
KBAB,large_airport,Beale Air Force Base,39.13610077,-121.4369965,113,US,US-CA,Marysville,KBAB,BAB,BAB
KBFL,medium_airport,Meadows Field,35.43360138,-119.0569992,510,US,US-CA,Bakersfield,KBFL,BFL,BFL
KBIH,medium_airport,Eastern Sierra Regional Airport,37.37310028,-118.3639984,4124,US,US-CA,Bishop,KBIH,BIH,BIH
KBLH,medium_airport,Blythe Airport,33.61920166,-114.7170029,399,US,US-CA,Blythe,KBLH,BLH,BLH
KBLU,small_airport,Blue Canyon Nyack Airport,39.27500153,-120.7099991,5284,US,US-CA,Emigrant Gap,KBLU,BLU,BLU
KBNG,small_airport,Banning Municipal Airport,33.92309952,-116.8509979,2219,US,US-CA,Banning,KBNG,BNG,BNG
KBUR,medium_airport,Bob Hope Airport,34.20069885,-118.3590012,778,US,US-CA,Burbank,KBUR,BUR,BUR
KBWC,small_airport,Brawley Municipal Airport,32.99290085,-115.5169983,-128,US,US-CA,Brawley,KBWC,BWC,BWC
KBYS,medium_airport,Bicycle Lake Army Air Field,35.2804985,-116.6299973,2350,US,US-CA,Fort Irwin/Barstow,KBYS,BYS,BYS
KC80,small_airport,New Coalinga Municipal Airport,36.1631012,-120.2939987,622,US,US-CA,Coalinga,,CLG,C80
KC83,small_airport,Byron Airport,37.82839966,-121.6259995,79,US,US-CA,Byron,KC83,,C83
KCCB,small_airport,Cable Airport,34.11159897,-117.6880035,1444,US,US-CA,Upland,KCCB,CCB,CCB
KCCR,small_airport,Buchanan Field,37.98970032,-122.0569992,26,US,US-CA,Concord,KCCR,CCR,CCR
KCEC,medium_airport,Jack Mc Namara Field Airport,41.78020096,-124.2369995,61,US,US-CA,Crescent City,KCEC,CEC,CEC
KCIC,small_airport,Chico Municipal Airport,39.79539871,-121.8580017,240,US,US-CA,Chico,KCIC,CIC,CIC
KCLR,small_airport,Cliff Hatfield Memorial Airport,33.13150024,-115.5210037,-182,US,US-CA,Calipatria,KCLR,CLR,CLR
KCMA,small_airport,Camarillo Airport,34.21369934,-119.0940018,77,US,US-CA,Camarillo,KCMA,,CMA
KCNO,small_airport,Chino Airport,33.97470093,-117.637001,650,US,US-CA,Chino,KCNO,CNO,CNO
KCPM,small_airport,Compton Woodley Airport,33.88999939,-118.2440033,97,US,US-CA,Compton,KCPM,CPM,CPM
KCPU,small_airport,Calaveras Co Maury Rasmussen Field,38.14609909,-120.6480026,1325,US,US-CA,San Andreas,KCPU,,CPU
KCRO,small_airport,Corcoran Airport,36.102502,-119.595001,197,US,US-CA,Corcoran,,CRO,43CN
KCRQ,medium_airport,Mc Clellan-Palomar Airport,33.12829971,-117.2799988,331,US,US-CA,Carlsbad,KCRQ,CLD,CRQ
KCXL,small_airport,Calexico International Airport,32.66949844,-115.5130005,4,US,US-CA,Calexico,KCXL,CXL,CXL
KD83,small_airport,Boonville Airport,39.01269913,-123.3830032,371,US,US-CA,Boonville,D83,,D83
KD86,small_airport,Sequoia Field,36.44860077,-119.3190002,313,US,US-CA,Visalia,D86,,D86
KDAG,medium_airport,Barstow Daggett Airport,34.85369873,-116.7870026,1930,US,US-CA,Daggett,KDAG,DAG,DAG
KDLO,small_airport,Delano Municipal Airport,35.74560165,-119.2369995,314,US,US-CA,Delano,KDLO,,DLO
KDVO,small_airport,Marin County Airport - Gnoss Field,38.14360046,-122.5559998,2,US,US-CA,Novato,KDVO,NOT,DVO
KDWA,small_airport,Yolo County Davis Woodland Winters Airport,38.57910156,-121.8570023,100,US,US-CA,Davis/Woodland/Winters,KDWA,,DWA
KE16,small_airport,San Martin Airport,37.08160019,-121.5970001,281,US,US-CA,San Martin,E16,,E16
KE45,small_airport,Pine Mountain Lake Airport,37.86169815,-120.1780014,2930,US,US-CA,Groveland,E45,,E45
KEDU,small_airport,University Airport,38.53150177,-121.7860031,69,US,US-CA,Davis,KEDU,,EDU
KEDW,large_airport,Edwards Air Force Base,34.905399,-117.884003,2312,US,US-CA,Edwards,KEDW,EDW,EDW
KEED,medium_airport,Needles Airport,34.7663002,-114.6230011,983,US,US-CA,Needles,KEED,EED,EED
KEKA,medium_airport,Murray Field,40.80339813,-124.112999,7,US,US-CA,Eureka,KEKA,EKA,EKA
KEMT,small_airport,El Monte Airport,34.08610153,-118.0350037,296,US,US-CA,El Monte,KEMT,EMT,EMT
KF34,small_airport,Firebaugh Airport,36.86000061,-120.4639969,157,US,US-CA,Firebaugh,F34,,F34
KF62,small_airport,Hayfork Airport,40.54710007,-123.1819992,2321,US,US-CA,Hayfork,F62,,F62
KF70,small_airport,French Valley Airport,33.57419968,-117.1279984,1350,US,US-CA,Murrieta/Temecula,F70,RBK,F70
KF72,small_airport,Franklin Field,38.30490112,-121.4300003,21,US,US-CA,Franklin,F72,,F72
KFAT,medium_airport,Fresno Yosemite International Airport,36.77619934,-119.7180023,336,US,US-CA,Fresno,KFAT,FAT,FAT
KFCH,small_airport,Fresno Chandler Executive Airport,36.73239899,-119.8199997,279,US,US-CA,Fresno,KFCH,FCH,FCH
KFOT,small_airport,Rohnerville Airport,40.55390167,-124.1330032,393,US,US-CA,Fortuna,KFOT,,FOT
KFUL,small_airport,Fullerton Municipal Airport,33.87200165,-117.9800034,96,US,US-CA,Fullerton,KFUL,FUL,FUL
KGOO,small_airport,Nevada County Airport,39.223998,-121.002997,3152,US,US-CA,Grass Valley,KGOO,,GOO
KH37,small_airport,Herlong Airport,40.13880157,-120.1790009,4055,US,US-CA,Herlong,H37,,H37
KHAF,small_airport,Half Moon Bay Airport,37.51340103,-122.5009995,66,US,US-CA,Half Moon Bay,KHAF,HAF,HAF
KHHR,medium_airport,Jack Northrop Field Hawthorne Municipal Airport,33.922798,-118.334999,66,US,US-CA,Hawthorne,KHHR,HHR,HHR
KHJO,small_airport,Hanford Municipal Airport,36.31669998,-119.6279984,240,US,US-CA,Hanford,KHJO,,HJO
KHMT,small_airport,Hemet Ryan Airport,33.73400116,-117.0230026,1512,US,US-CA,Hemet,KHMT,HMT,HMT
KHWD,small_airport,Hayward Executive Airport,37.65919876,-122.1220016,52,US,US-CA,Hayward,KHWD,HWD,HWD
KIPL,medium_airport,Imperial County Airport,32.83420181,-115.5790024,-54,US,US-CA,Imperial,KIPL,IPL,IPL
KIYK,small_airport,Inyokern Airport,35.65879822,-117.8300018,2457,US,US-CA,Inyokern,KIYK,IYK,IYK
KIZA,small_airport,Santa Ynez Airport,34.60680008,-120.0759964,674,US,US-CA,Santa Ynez,KIZA,SQA,IZA
KKIC,small_airport,Mesa Del Rey Airport,36.22800064,-121.1220016,370,US,US-CA,King City,KKIC,KIC,KIC
KL00,small_airport,Rosamond Skypark Airport,34.87080002,-118.2089996,2415,US,US-CA,Rosamond,KL00,,L00
KL04,small_airport,Holtville Airport,32.84030151,-115.2669983,59,US,US-CA,Holtville,KL04,,L04
KL05,small_airport,Kern Valley Airport,35.72829819,-118.4199982,2614,US,US-CA,Kernville,KL05,,L05
KL06,small_airport,Furnace Creek Airport,36.463799,-116.880997,-210,US,US-CA,Death Valley National Park,,DTH,L06
KL08,small_airport,Borrego Valley Airport,33.25899887,-116.3209991,520,US,US-CA,Borrego Springs,L08,BXS,L08
KL09,small_airport,Stovepipe Wells Airport,36.60409927,-117.1589966,25,US,US-CA,Death Valley National Park,KL09,,L09
KL17,small_airport,Taft Kern County Airport,35.14110184,-119.4410019,875,US,US-CA,Taft,KL17,,L17
KL19,small_airport,Wasco Kern County Airport,35.61970139,-119.3539963,313,US,US-CA,Wasco,KL19,,L19
KL22,small_airport,Yucca Valley Airport,34.12779999,-116.4079971,3224,US,US-CA,Yucca Valley,KL22,,L22
KL26,small_airport,Hesperia Airport,34.37720108,-117.3160019,3390,US,US-CA,Hesperia,KL26,,L26
KL35,small_airport,Big Bear City Airport,34.26380157,-116.8560028,6752,US,US-CA,Big Bear,L35,RBF,L35
KL45,small_airport,Bakersfield Municipal Airport,35.32479858,-118.9960022,378,US,US-CA,Bakersfield,KL45,,L45
KL62,small_airport,Elk Hills Buttonwillow Airport,35.35269928,-119.4789963,326,US,US-CA,Buttonwillow,KL62,,L62
KL64,small_airport,Desert Center Airport,33.74860001,-115.322998,559,US,US-CA,Desert Center,KL64,,L64
KL65,small_airport,Perris Valley Airport,33.76089859,-117.2180023,1413,US,US-CA,Perris,KL65,,L65
KL67,closed,Rialto Municipal Miro Field,34.12929916,-117.4020004,1455,US,US-CA,Rialto,KL67,,L67
KL70,small_airport,Agua Dulce Airpark,34.50419998,-118.3130035,2660,US,US-CA,Agua Dulce,L70,,L70
KL71,small_airport,California City Municipal Airport,35.15119934,-118.0169983,2454,US,US-CA,California City,KL71,,L71
KL72,small_airport,Trona Airport,35.8125,-117.3270035,1716,US,US-CA,Trona,L72,TRH,L72
KL73,small_airport,Poso Kern County Airport,35.59659958,-119.1279984,635,US,US-CA,Famoso,KL73,,L73
KL77,small_airport,Chiriaco Summit Airport,33.66529846,-115.7109985,1713,US,US-CA,Chiriaco Summit,KL77,,L77
KL84,small_airport,Lost Hills Kern County Airport,35.62360001,-119.685997,274,US,US-CA,Lost Hills,KL84,,L84
KL88,small_airport,New Cuyama Airport,34.9375,-119.6880035,2203,US,US-CA,New Cuyama,KL88,,L88
KL94,small_airport,Mountain Valley Airport,35.10110092,-118.4229965,4220,US,US-CA,Tehachapi,KL94,,L94
KLAX,large_airport,Los Angeles International Airport,33.94250107,-118.4079971,125,US,US-CA,Los Angeles,KLAX,LAX,LAX
KLGB,medium_airport,Long Beach /Daugherty Field/ Airport,33.81769943,-118.1520004,60,US,US-CA,Long Beach,KLGB,LGB,LGB
KLHM,small_airport,Lincoln Regional Karl Harder Field,38.90919876,-121.3509979,121,US,US-CA,Lincoln,KLHM,,LHM
KLLR,small_airport,Little River Airport,39.26200104,-123.7539978,572,US,US-CA,Little River,KLLR,,LLR
KLPC,small_airport,Lompoc Airport,34.66559982,-120.4680023,88,US,US-CA,Lompoc,KLPC,LPC,LPC
KLSN,small_airport,Los Banos Municipal Airport,37.06290054,-120.8690033,121,US,US-CA,Los Banos,KLSN,LSN,LSN
KLVK,small_airport,Livermore Municipal Airport,37.69340134,-121.8199997,400,US,US-CA,Livermore,KLVK,LVK,LVK
KM45,small_airport,Alpine County Airport,38.73469925,-119.7669983,5867,US,US-CA,Markleeville,M45,,M45
KM90,small_airport,William Robert Johnston Municipal Airport,36.75859833,-120.3710022,162,US,US-CA,Mendota,M90,,M90
KMAE,small_airport,Madera Municipal Airport,36.98860168,-120.1119995,255,US,US-CA,Madera,KMAE,MAE,MAE
KMCC,medium_airport,Mc Clellan Airfield,38.66759872,-121.401001,77,US,US-CA,Sacramento,KMCC,MCC,MCC
KMCE,medium_airport,Merced Regional Macready Field,37.28469849,-120.5139999,155,US,US-CA,Merced,KMCE,MCE,MCE
KMER,medium_airport,Castle Airport,37.38050079,-120.5680008,191,US,US-CA,Merced,KMER,MER,MER
KMHR,medium_airport,Sacramento Mather Airport,38.55390167,-121.2979965,98,US,US-CA,Sacramento,KMHR,MHR,MHR
KMHV,small_airport,Mojave Airport,35.05939865,-118.1520004,2801,US,US-CA,Mojave,KMHV,MHV,MHV
KMIT,small_airport,Shafter Airport - Minter Field,35.507401,-119.192002,424,US,US-CA,Shafter,KMIT,MIT,MIT
KMMH,small_airport,Mammoth Yosemite Airport,37.62409973,-118.8379974,7135,US,US-CA,Mammoth Lakes,KMMH,MMH,MMH
KMOD,medium_airport,Modesto City Co-Harry Sham Field,37.62580109,-120.9540024,97,US,US-CA,Modesto,KMOD,MOD,MOD
KMPI,small_airport,Mariposa Yosemite Airport,37.51089859,-120.0400009,2254,US,US-CA,Mariposa,KMPI,RMY,MPI
KMRY,medium_airport,Monterey Peninsula Airport,36.5870018,-121.8430023,257,US,US-CA,Monterey,KMRY,MRY,MRY
KMYF,small_airport,Montgomery-Gibbs Executive Airport,32.8157,-117.139999,427,US,US-CA,San Diego,KMYF,MYF,MYF
KMYV,medium_airport,Yuba County Airport,39.09780121,-121.5699997,64,US,US-CA,Marysville,KMYV,MYV,MYV
KNFG,medium_airport,Camp Pendleton MCAS (Munn Field) Airport,33.30130005,-117.3550034,78,US,US-CA,Oceanside,KNFG,,NFG
KNGZ,closed,Alameda Naval Air Station,37.78889847,-122.3199997,10,US,US-CA,Alameda,KNGZ,NGZ,
KNID,medium_airport,China Lake Naws (Armitage Field) Airport,35.6853981,-117.6920013,2283,US,US-CA,China Lake,KNID,,NID
KNJK,medium_airport,El Centro Naf Airport,32.82920074,-115.6719971,-42,US,US-CA,El Centro,KNJK,,NJK
KNKX,medium_airport,Miramar Marine Corps Air Station - Mitscher Field,32.86840057,-117.1429977,477,US,US-CA,San Diego,KNKX,NKX,NKX
KNLC,medium_airport,Lemoore Naval Air Station (Reeves Field) Airport,36.33300018,-119.9520035,232,US,US-CA,Lemoore,KNLC,NLC,NLC
KNRS,small_airport,Naval Outlying Field Imperial Beach (Ream Field),32.56669998,-117.1169968,24,US,US-CA,Imperial Beach,KNRS,NRS,NRS
KNSI,small_airport,San Nicolas Island Nolf Airport,33.2397995,-119.4580002,506,US,US-CA,San Nicolas Island,KNSI,,NSI
KNTD,medium_airport,Point Mugu Naval Air Station (Naval Base Ventura Co),34.12030029,-119.1210022,13,US,US-CA,Point Mugu,KNTD,NTD,NTD
KNTK,closed,MCAS Tustin,33.70669937,-117.8270035,52,US,US-CA,Tustin,KNTK,,NTK
KNUC,small_airport,San Clemente Island Naval Auxiliary Landing Field,33.02270126,-118.5879974,184,US,US-CA,San Clemente Island,KNUC,,NUC
KNUQ,medium_airport,Moffett Federal Airfield,37.41609955,-122.0490036,32,US,US-CA,Mountain View,KNUQ,,NUQ
KNXP,medium_airport,Twentynine Palms (Self) Airport,34.2961998,-116.1620026,2051,US,US-CA,Twentynine Palms,KNXP,,NXP
KNZJ,closed,El Toro Marine Corps Air Station,33.67610168,-117.7310028,383,US,US-CA,Santa Ana,KNZJ,,NZJ
KNZY,medium_airport,North Island Naval Air Station-Halsey Field,32.69919968,-117.2149963,26,US,US-CA,San Diego,KNZY,NZY,NZY
KO02,small_airport,Nervino Airport,39.81850052,-120.3529968,4900,US,US-CA,Beckwourth,KO02,NVN,O02
KO05,small_airport,Rogers Field,40.28239822,-121.2409973,4528,US,US-CA,Chester,KO05,,O05
KO08,small_airport,Colusa County Airport,39.17900085,-121.9929962,50,US,US-CA,Colusa,KO08,,O08
KO09,small_airport,Round Valley Airport,39.79019928,-123.2659988,1434,US,US-CA,Covelo,KO09,,O09
KO15,small_airport,Turlock Municipal Airport,37.48740005,-120.6969986,159,US,US-CA,Turlock,KO15,,O15
KO16,small_airport,Garberville Airport,40.08599854,-123.814003,546,US,US-CA,Garberville,KO16,,O16
KO20,small_airport,Kingdon Airpark,38.09159851,-121.3590012,15,US,US-CA,Lodi,KO20,,O20
KO22,small_airport,Columbia Airport,38.03039932,-120.4150009,2118,US,US-CA,Columbia,O22,COA,O22
KO24,small_airport,Lee Vining Airport,37.95830154,-119.1070023,6802,US,US-CA,Lee Vining,O24,,O24
KO26,small_airport,Lone Pine\Death Valley Airport,36.588299,-118.052002,3680,US,US-CA,Lone Pine,,,O26
KO27,small_airport,Oakdale Airport,37.75630188,-120.8000031,237,US,US-CA,Oakdale,O27,ODC,O27
KO28,small_airport,Ells Field Willits Municipal Airport,39.45130157,-123.3720016,2063,US,US-CA,Willits,KO28,,O28
KO32,small_airport,Reedley Municipal Airport,36.66630173,-119.4499969,383,US,US-CA,Reedley,KO32,,O32
KO37,small_airport,Haigh Field,39.72119904,-122.1470032,215,US,US-CA,Orland,KO37,,O37
KO41,small_airport,Watts Woodland Airport,38.6739006,-121.8720016,125,US,US-CA,Woodland,KO41,,O41
KO42,small_airport,Woodlake Airport,36.3987999,-119.1070023,425,US,US-CA,Woodlake,KO42,,O42
KO46,small_airport,Weed Airport,41.47489929,-122.4530029,2938,US,US-CA,Weed,KO46,,O46
KO52,small_airport,Sutter County Airport,39.12369919,-121.6050034,58,US,US-CA,Yuba City,KO52,,O52
KO54,small_airport,Lonnie Pool Field Weaverville Airport,40.74570084,-122.9219971,2350,US,US-CA,Weaverville,KO54,,O54
KO57,small_airport,Bryant Field,38.262402,-119.225998,6468,US,US-CA,Bridgeport,KBAN,,O57
KO59,small_airport,Cedarville Airport,41.55270004,-120.1660004,4623,US,US-CA,Cedarville,KO59,,O59
KO60,small_airport,Cloverdale Municipal Airport,38.77600098,-122.9929962,277,US,US-CA,Cloverdale,O60,,O60
KO61,small_airport,Cameron Park Airport,38.683998,-120.987999,1286,US,US-CA,Cameron Park,,,O61
KO69,small_airport,Petaluma Municipal Airport,38.25780106,-122.6060028,90,US,US-CA,Petaluma,O69,,O69
KO70,small_airport,Westover Field Amador County Airport,38.37680054,-120.7939987,1690,US,US-CA,Jackson,KJAQ,,JAQ
KO79,small_airport,Sierraville Dearwater Airport,39.58100128,-120.3539963,4984,US,US-CA,Sierraville,KO79,,O79
KO81,small_airport,Tulelake Municipal Airport,41.88740158,-121.3590012,4044,US,US-CA,Tulelake,KO81,,O81
KO86,small_airport,Trinity Center Airport,40.98320007,-122.6940002,2390,US,US-CA,Trinity Center,KO86,,O86
KO88,small_airport,Rio Vista Municipal Airport,38.19340134,-121.7040024,20,US,US-CA,Rio Vista,KO88,,O88
KO89,small_airport,Fall River Mills Airport,41.01879883,-121.4329987,3323,US,US-CA,Fall River Mills,KO89,,O89
KOAK,large_airport,Metropolitan Oakland International Airport,37.721298,-122.221001,9,US,US-CA,Oakland,KOAK,OAK,OAK
KOAR,small_airport,Marina Municipal Airport,36.68190002,-121.762001,137,US,US-CA,Marina,KOAR,OAR,OAR
KOKB,small_airport,Oceanside Municipal Airport,33.21730042,-117.3539963,28,US,US-CA,Oceanside,KOKB,OCN,OKB
KONT,large_airport,Ontario International Airport,34.05599976,-117.6009979,944,US,US-CA,Ontario,KONT,ONT,ONT
KOVE,small_airport,Oroville Municipal Airport,39.4878006,-121.6220016,192,US,US-CA,Oroville,KOVE,OVE,OVE
KOXR,medium_airport,Oxnard Airport,34.20080185,-119.2070007,45,US,US-CA,Oxnard,KOXR,OXR,OXR
KPAO,small_airport,Palo Alto Airport of Santa Clara County,37.46110153,-122.1149979,4,US,US-CA,Palo Alto,KPAO,PAO,PAO
KPMD,medium_airport,Palmdale Regional/USAF Plant 42 Airport,34.62939835,-118.0849991,2543,US,US-CA,Palmdale,KPMD,PMD,PMD
KPOC,small_airport,Brackett Field,34.09159851,-117.7819977,1011,US,US-CA,La Verne,KPOC,POC,POC
KPRB,medium_airport,Paso Robles Municipal Airport,35.67290115,-120.6269989,840,US,US-CA,Paso Robles,KPRB,PRB,PRB
KPSP,medium_airport,Palm Springs International Airport,33.82970047,-116.5070038,477,US,US-CA,Palm Springs,KPSP,PSP,PSP
KPTV,small_airport,Porterville Municipal Airport,36.02959824,-119.0630035,442,US,US-CA,Porterville,KPTV,PTV,PTV
KPVF,small_airport,Placerville Airport,38.7242012,-120.7529984,2585,US,US-CA,Placerville,KPVF,PVF,PVF
KRAL,medium_airport,Riverside Municipal Airport,33.95190048,-117.4449997,819,US,US-CA,Riverside,KRAL,RAL,RAL
KRBL,medium_airport,Red Bluff Municipal Airport,40.15069962,-122.2519989,352,US,US-CA,Red Bluff,KRBL,RBL,RBL
KRDD,medium_airport,Redding Municipal Airport,40.50899887,-122.2929993,505,US,US-CA,Redding,KRDD,RDD,RDD
KREI,small_airport,Redlands Municipal Airport,34.08530045,-117.1460037,1571,US,US-CA,Redlands,KREI,,REI
KRHV,small_airport,Reid-Hillview Airport of Santa Clara County,37.332901,-121.8190002,135,US,US-CA,San Jose,KRHV,RHV,RHV
KRIR,small_airport,Flabob Airport,33.98970032,-117.4110031,764,US,US-CA,Riverside/Rubidoux/,KRIR,,RIR
KRIU,small_airport,Rancho Murieta Airport,38.48680115,-121.1029968,141,US,US-CA,Rancho Murieta,KRIU,,RIU
KRIV,medium_airport,March ARB Airport,33.88069916,-117.2590027,1536,US,US-CA,Riverside,KRIV,,RIV
KRNM,small_airport,Ramona Airport,33.03919983,-116.9150009,1395,US,US-CA,Ramona,KRNM,,RNM
KSAC,medium_airport,Sacramento Executive Airport,38.51250076,-121.4929962,24,US,US-CA,Sacramento,KSAC,SAC,SAC
KSAN,large_airport,San Diego International Airport,32.73360062,-117.1900024,17,US,US-CA,San Diego,KSAN,SAN,SAN
KSBA,medium_airport,Santa Barbara Municipal Airport,34.42620087,-119.8399963,13,US,US-CA,Santa Barbara,KSBA,SBA,SBA
KSBD,medium_airport,San Bernardino International Airport,34.09540176,-117.2350006,1159,US,US-CA,San Bernardino,KSBD,SBD,SBD
KSBP,medium_airport,San Luis County Regional Airport,35.23680115,-120.6419983,212,US,US-CA,San Luis Obispo,KSBP,SBP,SBP
KSCK,medium_airport,Stockton Metropolitan Airport,37.89419937,-121.237999,33,US,US-CA,Stockton,KSCK,SCK,SCK
KSDM,medium_airport,Brown Field Municipal Airport,32.57229996,-116.9800034,526,US,US-CA,San Diego,KSDM,SDM,SDM
KSEE,small_airport,Gillespie Field,32.82619858,-116.9720001,388,US,US-CA,San Diego/El Cajon,KSEE,SEE,SEE
KSFO,large_airport,San Francisco International Airport,37.61899948,-122.375,13,US,US-CA,San Francisco,KSFO,SFO,SFO
KSIY,small_airport,Siskiyou County Airport,41.78139877,-122.4680023,2648,US,US-CA,Montague,KSIY,,SIY
KSJC,large_airport,Norman Y. Mineta San Jose International Airport,37.362598,-121.929001,62,US,US-CA,San Jose,KSJC,SJC,SJC
KSLI,medium_airport,Los Alamitos Army Air Field,33.79000092,-118.052002,32,US,US-CA,Los Alamitos,KSLI,,SLI
KSMF,large_airport,Sacramento International Airport,38.69540024,-121.5910034,27,US,US-CA,Sacramento,KSMF,SMF,SMF
KSMO,small_airport,Santa Monica Municipal Airport,34.01580048,-118.4509964,177,US,US-CA,Santa Monica,KSMO,SMO,SMO
KSMX,medium_airport,Santa Maria Pub/Capt G Allan Hancock Field,34.89889908,-120.4570007,261,US,US-CA,Santa Maria,KSMX,SMX,SMX
KSNA,large_airport,John Wayne Airport-Orange County Airport,33.67570114,-117.8679962,56,US,US-CA,Santa Ana,KSNA,SNA,SNA
KSNS,medium_airport,Salinas Municipal Airport,36.66279984,-121.6060028,85,US,US-CA,Salinas,KSNS,SNS,SNS
KSQL,small_airport,San Carlos Airport,37.51190186,-122.25,5,US,US-CA,San Carlos,KSQL,SQL,SQL
KSTS,medium_airport,Charles M. Schulz Sonoma County Airport,38.50899887,-122.8130035,128,US,US-CA,Santa Rosa,KSTS,STS,STS
KSUU,large_airport,Travis Air Force Base,38.26269913,-121.927002,62,US,US-CA,Fairfield,KSUU,SUU,SUU
KSVE,small_airport,Susanville Municipal Airport,40.3757019,-120.572998,4149,US,US-CA,Susanville,KSVE,SVE,SVE
KT42,small_airport,Ruth Airport,40.2112999,-123.2979965,2781,US,US-CA,Ruth,T42,,T42
KTCY,small_airport,Tracy Municipal Airport,37.68899918,-121.4420013,193,US,US-CA,Tracy,KTCY,,TCY
KTLR,small_airport,Mefford Field,36.15629959,-119.3259964,265,US,US-CA,Tulare,KTLR,TLR,TLR
KTNP,small_airport,Twentynine Palms Airport,34.13159943,-115.9459991,1888,US,US-CA,Twentynine Palms,KTNP,TNP,TNP
KTOA,small_airport,Zamperini Field,33.80339813,-118.3399963,103,US,US-CA,Torrance,KTOA,TOA,TOA
KTRK,medium_airport,Truckee Tahoe Airport,39.31999969,-120.1399994,5900,US,US-CA,Truckee,KTRK,TKF,TRK
KTRM,medium_airport,Jacqueline Cochran Regional Airport,33.62670135,-116.1600037,-115,US,US-CA,Palm Springs,KTRM,TRM,TRM
KTSP,small_airport,Tehachapi Municipal Airport,35.13499832,-118.439003,4001,US,US-CA,Tehachapi,KTSP,TSP,TSP
KTVL,medium_airport,Lake Tahoe Airport,38.89390182,-119.9950027,6264,US,US-CA,South Lake Tahoe,KTVL,TVL,TVL
KUDD,small_airport,Bermuda Dunes Airport,33.74840164,-116.2750015,73,US,US-CA,Palm Springs,KUDD,UDD,UDD
KUKI,medium_airport,Ukiah Municipal Airport,39.12599945,-123.2009964,614,US,US-CA,Ukiah,KUKI,UKI,UKI
KVBG,large_airport,Vandenberg Air Force Base,34.73730087,-120.5839996,369,US,US-CA,Lompoc,KVBG,VBG,VBG
KVCB,small_airport,Nut Tree Airport,38.37680054,-121.961998,117,US,US-CA,Vacaville,KVCB,,VCB
KVCV,small_airport,Southern California Logistics Airport,34.59749985,-117.3830032,2885,US,US-CA,Victorville,KVCV,VCV,VCV
KVIS,small_airport,Visalia Municipal Airport,36.31869888,-119.3929977,295,US,US-CA,Visalia,KVIS,VIS,VIS
KVNY,medium_airport,Van Nuys Airport,34.20980072,-118.4899979,802,US,US-CA,Van Nuys,KVNY,VNY,VNY
KWHP,small_airport,Whiteman Airport,34.25930023,-118.413002,1003,US,US-CA,Los Angeles,KWHP,WHP,WHP
KWJF,medium_airport,General WM J Fox Airfield,34.74110031,-118.2190018,2351,US,US-CA,Lancaster,KWJF,WJF,WJF
KWLW,small_airport,Willows Glenn County Airport,39.51639938,-122.2180023,141,US,US-CA,Willows,KWLW,WLW,WLW
KWVI,small_airport,Watsonville Municipal Airport,36.93569946,-121.7900009,163,US,US-CA,Watsonville,KWVI,WVI,WVI
KZ26,heliport,Camp Roberts Heliport,35.79138889,-120.7427778,660,US,US-CA,San Miguel,KZ26,,
KZ27,heliport,Pyramid Head Helipad,32.8366,-118.381601,973,US,US-CA,San Clemente Island,KZ27,,KZ27
L11,seaplane_base,Pebbly Beach Seaplane Base,33.338402,-118.311996,,US,US-CA,Avalon,KL11,,L11
L18,small_airport,Fallbrook Community Airpark,33.35419846,-117.2509995,708,US,US-CA,Fallbrook,L18,,L18
L36,small_airport,Rio Linda Airport,38.67499924,-121.4449997,45,US,US-CA,Rio Linda,L36,,L36
L52,small_airport,Oceano County Airport,35.10139847,-120.6220016,14,US,US-CA,Oceano,L52,,L52
L53,small_airport,Lodi Airpark,38.08409882,-121.3160019,25,US,US-CA,Lodi,L53,,L53
L54,small_airport,Agua Caliente Airport,32.95009995,-116.2929993,1220,US,US-CA,Agua Caliente Springs,L54,,L54
L61,small_airport,Shoshone Airport,35.96860123,-116.2689972,1568,US,US-CA,Shoshone,L61,,L61
L78,small_airport,Jacumba Airport,32.61600113,-116.1650009,2844,US,US-CA,Jacumba,L78,,L78
L80,small_airport,Roy Williams Airport,34.15420151,-116.2519989,2464,US,US-CA,Joshua Tree,L80,,L80
L90,small_airport,Ocotillo Airport,33.15000153,-116.1330032,160,US,US-CA,Ocotillo Wells,L90,,L90
LA22,heliport,PG&E Livermore Training Center Heliport,37.699064,-121.709742,572,US,US-CA,Livermore,LA22,,LA22
LRO,closed,Sharpe AAF,37.83791667,-121.2728056,55,US,US-CA,Lathrop,,LRO,
NRC,closed,NASA Crows Landing Airport,37.40800095,-121.1090012,166,US,US-CA,Crows Landing,KNRC,NRC,NRC
NXF,small_airport,MCOLF Camp Pendleton (Red Beach) Airport,33.285644,-117.456478,89,US,US-CA,Oceanside,KNXF,,NXF
O06,seaplane_base,Lake Oroville Landing Area Seaplane Base,39.5666008,-121.4680023,900,US,US-CA,Oroville,O06,,O06
O19,small_airport,Kneeland Airport,40.71929932,-123.9280014,2737,US,US-CA,Eureka,O19,NLN,O19
O21,small_airport,Hoopa Airport,41.04290009,-123.6679993,356,US,US-CA,Hoopa,O21,,O21
O23,small_airport,Pinnacles Ranch Airport,36.5102005,-121.1350021,1200,US,US-CA,Paicines,O23,,
O31,small_airport,Healdsburg Municipal Airport,38.6534996,-122.8990021,278,US,US-CA,Healdsburg,KHES,,HES
O33,small_airport,Samoa Field Airport,40.78099823,-124.211998,20,US,US-CA,Eureka,O33,,O33
O39,small_airport,Ravendale Airport,40.80319977,-120.3659973,5299,US,US-CA,Ravendale,O39,,O39
O55,small_airport,Southard Field,41.13959885,-121.1240005,4158,US,US-CA,Bieber,O55,,O55
O62,closed,Carmel Valley,36.48148434,-121.7291164,,US,US-CA,,,O62,
O63,small_airport,Exeter Airport,36.24300003,-119.1500015,340,US,US-CA,Exeter,O63,,O63
O85,small_airport,Benton Field,40.57490158,-122.4079971,719,US,US-CA,Redding,O85,BZF,O85
P27,small_airport,Pixley Airport,35.96049881,-119.3079987,256,US,US-CA,Pixley,P27,,P27
PAI,heliport,Barton Heliport,34.258782,-118.40785,960,US,US-CA,Pacoima,KPAI,,PAI
RZH,closed,Quartz Hill Airport,34.65,-118.206,2465,US,US-CA,Lancaster,,RZH,
S51,small_airport,Andy Mc Beth Airport,41.51210022,-123.9960022,42,US,US-CA,Klamath Glen,S51,,S51
S74,seaplane_base,Lost Isle Seaplane Base,38.0041008,-121.4570007,,US,US-CA,Stockton,S74,,S74
SAS,small_airport,Salton Sea Airport,33.24140167,-115.9520035,-84,US,US-CA,Salton City,KSAS,SAS,SAS
SBT,closed,Tri-City Airport,34.0677,-117.2725,1038,US,US-CA,San Bernardino,,SBT,
SFR,closed,San Fernando Airport,34.289,-118.422,1168,US,US-CA,Los Angeles,,SFR,
SRF,closed,Hamilton Field,38.06,-122.51,2,US,US-CA,San Rafael,,SRF,
SRU,closed,Santa Cruz Sky Park,37.0503,-122.0315,523,US,US-CA,Scotts Valley,,SRU,
SYL,heliport,Roberts Army Heliport,35.81499863,-120.7440033,630,US,US-CA,Camp Roberts/San Miguel,KSYL,SYL,SYL
SZN,small_airport,Santa Cruz Island Airport,34.06060028,-119.9150009,50,US,US-CA,Santa Barbara,KSZN,SZN,SZN
SZP,small_airport,Santa Paula Airport,34.34719849,-119.060997,243,US,US-CA,Santa Paula,KSZP,SZP,SZP
TWH,seaplane_base,Two Harbors Amphibious Terminal,33.43222222,-118.5086111,,US,US-CA,Two Harbors,,TWH,
US-0037,small_airport,Tenco Tractor Airport,38.76929855,-121.5189972,31,US,US-CA,Sacramento,,,
US-0058,small_airport,Avery Ranch Airstrip,41.62941354,-122.4114168,2620,US,US-CA,,,,
US-0059,small_airport,Chicken Strip,36.80704271,-117.7817416,,US,US-CA,,,,
US-0067,small_airport,Mosier Airport,38.43600082,-121.3150024,73,US,US-CA,Elk Grove,,,
US-0069,heliport,Anaheim Police Heliport,33.82640076,-117.901001,162,US,US-CA,Anaheim,,,
US-0071,heliport,Sce San Onofre Heliport,33.37139893,-117.560997,96,US,US-CA,Oceanside,,,
US-0163,small_airport,Panamint Springs Airstrip,36.33832486,-117.4670649,,US,US-CA,,,,
US-0189,heliport,Orange County Global Medical Center Helipad,33.75493056,-117.8327361,178,US,US-CA,Santa Ana,,,1CN1
US-0223,heliport,Memorial Medical Center Heliport,37.6691,-120.9721,97,US,US-CA,Modesto,,,
US-0225,heliport,Treasure Island Helipad,37.819896,-122.364774,7,US,US-CA,San Francisco,,,
US-0227,small_airport,Ranger Station Airstrip,34.0373,-120.3493,560,US,US-CA,San Miguel Island,,,
US-0228,small_airport,Point Bennett Research Station Airstrip,34.04328,-120.41184,389,US,US-CA,San Miguel Island,,,
US-0229,small_airport,Bechers Bay Airstrip,33.99624,-120.0456,88,US,US-CA,Santa Rosa Island,,,
US-0248,small_airport,Santa Margarita Ranch Airport,35.3996501,-120.616037,987,US,US-CA,Santa Margarita,,,
US-0249,small_airport,Hearst Ranch Airport,35.663764,-121.198944,,US,US-CA,San Simeon,,,
US-0260,closed,San Clemente Naval Auxiliary Air Station,32.94721,-118.53085,,US,US-CA,,,,
US-0264,heliport,Adventist Medical Center Hanford Heliport,36.3233,-119.6672,291,US,US-CA,Hanford,,,15CN
US-0288,heliport,Antelope Valley Hospital Medical Center Heliport,34.6878,-118.16,2357,US,US-CA,Lancaster,,,
US-0289,heliport,New Barstow Community Hospital Heliport,34.8925,-117.0178,2317,US,US-CA,Barstow,,,
US-0290,heliport,Clovis Community Hospital Heliport,36.8386,-119.6591,392,US,US-CA,Clovis,,,
US-0291,heliport,Doctors Medical Center of Modesto Heliport,37.6654,-120.9975,148,US,US-CA,Modesto,,,
US-0292,heliport,Good Samaritan Hospital Heliport,37.253217,-121.947479,298,US,US-CA,San Jose,,,
US-0293,heliport,Harbor/UCLA Medical Center Heliport,33.8292,-118.2926,55,US,US-CA,Torrance,,,
US-0294,heliport,John C. Fremont Healthcare District Heliport,37.499753,-119.977789,2204,US,US-CA,Mariposa,,,
US-0295,heliport,John Muir Mt. Diablo Medical Center Heliport,37.9241,-121.7337,132,US,US-CA,Brentwood,,,
US-0296,heliport,Kaiser Foundation Hospital Manteca Heliport,37.7979,-121.2471,27,US,US-CA,Manteca,,,
US-0297,heliport,Kaiser Permanente Medical Center Santa Clara Heliport,37.3349,-121.9998,,US,US-CA,Santa Clara,,,
US-0298,heliport,Kaiser Permanente Modesto Heliport,37.708008,-121.052821,98,US,US-CA,Modesto,,,
US-0299,heliport,Kaweah Delta District Heliport (A-lll),36.3281,-119.2939,349,US,US-CA,Visalia,,,
US-0300,heliport,Kern Valley Hospital Heliport,35.6345,-118.4069,2704,US,US-CA,Lake Isabella,,,
US-0301,heliport,Mad River Community Hospital Heliport,40.895308,-124.090957,35,US,US-CA,Arcata,,,
US-0308,heliport,Pebbly Beach Seaplane Base Helipad,33.336686,-118.311455,10,US,US-CA,Avalon,,,L11
US-0322,closed,Camp San Luis Obispo Army Airfield,35.3321,-120.7483,256,US,US-CA,Camp San Luis Obispo,,,
US-0330,heliport,Auto Club Speedway Heliport,34.0874,-117.50506,,US,US-CA,Ontario,,,
US-0337,heliport,Behring Ranch Heliport,39.3413112,-121.9509333,62,US,US-CA,Colusa,3CA3,,3CA3
US-0385,heliport,Marine Corps Logistics Base Heliport,34.873565,-116.954883,2097,US,US-CA,Barstow,,,
US-0387,heliport,Frank R Howard Memorial Hospital Heliport,39.3890972,-123.3392973,1401,US,US-CA,Willits,CA02,,CA02
US-0404,heliport,Centerport Heliport,33.6716917,-117.8747611,83,US,US-CA,Costa Mesa,10CL,,10CL
US-0434,heliport,UCSD Health System East Campus Interim Heliport,32.876406,-117.2210194,335,US,US-CA,La Jolla,52CA,,52CA
US-0462,small_airport,Mercey Hot Springs Airport,36.706512,-120.860132,1170,US,US-CA,Firebaugh,CN22,,CN22
US-0483,closed,Terminal Island Airport/Allen Field,33.75,-118.257001,12,US,US-CA,Long Beach,,,
US-0507,closed,Natomas Field,38.638237,-121.515236,19,US,US-CA,Sacramento,,,
US-0556,small_airport,Flying Gluepie Ranch Airport,38.467604,-120.803483,1451,US,US-CA,Fiddletown,74CA,,74CA
US-0598,heliport,Ronald Reagan UCLA Medical Center Helistop,34.066769,-118.446839,507,US,US-CA,Los Angeles,75CL,,75CL
US-0731,small_airport,Pom Wonderful Airstrip,36.652744,-119.587113,341,US,US-CA,Del Rey,0CA0,,0CA0
US-0743,small_airport,23R Airport,11.523088,8.4375,,US,US-CA,Los Angeles,,,8559374
US-0799,heliport,Blackwater Heliport,33.499701,-117.041322,1195,US,US-CA,Temecula,CN35,,CN35
US-CA64,small_airport,Gilbreath Bros Duck Club Airport,35.68690109,-119.5999985,220,US,US-CA,Wasco,CA64,,CA64
WJBK,closed,Berkley Municipal Heliport,37.8666,-122.3065,12,US,US-CA,Oakland,WJBK,JBK,JBK
